001 KSGF 37.23 -93.38 22 79.47 KBBG 36.53 -93.20 1235798100 2009-02-28 05:15:00 10 -20 60 7 None 1000 10187 None 6 None OVC                          None None None 18 None None None None None None None None None None None None None None METAR KBBG 280515Z AUTO 06007KT 10SM OVC018 01/M02 A3008 RMK AO2
001 KSGF 37.23 -93.38 22 67.61 KHFJ 36.90 -94.02 1235798100 2009-02-28 05:15:00 10 -20 0 0 None 1000 10190 None 6 None OVC                          None None None 17 None None None None None None None None None None None None None None METAR KHFJ 280515Z AUTO 00000KT 10SM OVC017 01/M02 A3009 RMK AO1
001 KSGF 37.23 -93.38 22 67.61 KHFJ 36.90 -94.02 1235799300 2009-02-28 05:35:00 10 -20 40 8 None 1000 10187 None 6 None OVC                          None None None 17 None None None None None None None None None None None None None None METAR KHFJ 280535Z AUTO 04008KT 10SM OVC017 01/M02 A3008 RMK AO1
001 KSGF 37.23 -93.38 22 79.47 KBBG 36.53 -93.20 1235799300 2009-02-28 05:35:00 0 -20 30 5 None 1000 10187 None 6 None OVC                          None None None 18 None None None None None None None None None None None None None None METAR KBBG 280535Z AUTO 03005KT 10SM OVC018 00/M02 A3008 RMK AO2
001 KSGF 37.23 -93.38 22 0.00 KSGF 37.23 -93.38 1235799360 2009-02-28 05:36:00 10 -20 40 11 None 1000 10190 None 4 None OVC                          None None None 14 None None None None None None None None None None None None None None METAR KSGF 280536Z 04011KT 10SM OVC014 01/M02 A3009 RMK AO2
001 KSGF 37.23 -93.38 22 0.00 KSGF 37.23 -93.38 1235800320 2009-02-28 06:00:00 11 -22 50 11 None 1000 10190 10201 4 None OVC                          None None None 14 None None None 10 17 11 50 -33 None None None None None None METAR KSGF 280552Z 05011KT 10SM OVC014 01/M02 A3009 RMK AO2 SLP201 T00111022 10017 20011 400501033 51010
001 KSGF 37.23 -93.38 22 99.61 KJLN 37.15 -94.50 1235800380 2009-02-28 06:00:00 11 -22 40 5 None 900 10201 10207 6 None OVC                          None None None 18 None None None 20 28 11 39 -50 None None 5 None None None METAR KJLN 280553Z AUTO 04005KT 9SM OVC018 01/M02 A3012 RMK AO2 PRESRR SLP207 60000 T00111022 10028 20011 400391050 51020
001 KSGF 37.23 -93.38 22 79.47 KBBG 36.53 -93.20 1235800500 2009-02-28 06:00:00 0 -20 40 4 None 1000 10187 None 6 None OVC                          None None None 18 None None None None None None None None None None None None None None METAR KBBG 280555Z AUTO 04004KT 10SM OVC018 00/M02 A3008 RMK AO2
001 KSGF 37.23 -93.38 22 67.61 KHFJ 36.90 -94.02 1235800500 2009-02-28 05:55:00 10 -20 60 8 None 1000 10184 None 6 None OVC                          None None None 17 None None None None None None None None None None None None None None SPECI KHFJ 280555Z AUTO 06008KT 10SM OVC017 01/M02 A3007 RMK AO1
001 KSGF 37.23 -93.38 23 67.61 KHFJ 36.90 -94.02 1235801700 2009-02-28 06:15:00 10 -20 70 10 15 1000 10180 None 6 None OVC                          None None None 17 None None None None None None None None None None None None None None METAR KHFJ 280615Z AUTO 07010G15KT 10SM OVC017 01/M02 A3006 RMK AO1
001 KSGF 37.23 -93.38 23 79.47 KBBG 36.53 -93.20 1235801700 2009-02-28 06:15:00 10 -20 50 6 None 1000 10187 None 6 None OVC                          None None None 18 None None None None None None None None None None None None None None METAR KBBG 280615Z AUTO 05006KT 10SM OVC018 01/M02 A3008 RMK AO2
001 KSGF 37.23 -93.38 23 79.47 KBBG 36.53 -93.20 1235802900 2009-02-28 06:35:00 10 -20 50 3 None 1000 10187 None 6 None OVC                          None None None 16 None None None None None None None None None None None None None None SPECI KBBG 280635Z AUTO 05003KT 10SM OVC016 01/M02 A3008 RMK AO2
001 KSGF 37.23 -93.38 23 67.61 KHFJ 36.90 -94.02 1235802900 2009-02-28 06:35:00 10 -20 0 0 None 1000 10184 None 6 None OVC                          None None None 17 None None None None None None None None None None None None None None METAR KHFJ 280635Z AUTO 00000KT 10SM OVC017 01/M02 A3007 RMK AO1
001 KSGF 37.23 -93.38 23 0.00 KSGF 37.23 -93.38 1235803920 2009-02-28 07:00:00 6 -28 70 12 None 1000 10184 10192 4 None OVC                          None None None 14 None None None None None None None None None None None None None None METAR KSGF 280652Z 07012KT 10SM OVC014 01/M03 A3007 RMK AO2 SLP192 T00061028
001 KSGF 37.23 -93.38 23 99.61 KJLN 37.15 -94.50 1235803980 2009-02-28 07:00:00 11 -22 340 8 None 900 10218 10224 6 None OVC                          None None None 18 None None None None None None None None None None None None None None METAR KJLN 280653Z AUTO 34008KT 9SM OVC018 01/M02 A3017 RMK AO2 SLP224 T00111022
001 KSGF 37.23 -93.38 23 67.61 KHFJ 36.90 -94.02 1235804100 2009-02-28 07:00:00 10 -20 40 6 None 1000 10187 None 6 None OVC                          None None None 17 None None None None None None None None None None None None None None METAR KHFJ 280655Z AUTO 04006KT 10SM OVC017 01/M02 A3008 RMK AO1
001 KSGF 37.23 -93.38 23 79.47 KBBG 36.53 -93.20 1235804100 2009-02-28 07:00:00 10 -20 80 6 None 1000 10180 None 6 None OVC                          None None None 16 None None None None None None None None None None None None None None METAR KBBG 280655Z AUTO 08006KT 10SM OVC016 01/M02 A3006 RMK AO2
001 KSGF 37.23 -93.38 00 79.47 KBBG 36.53 -93.20 1235805300 2009-02-28 07:15:00 10 -20 90 6 None 1000 10184 None 6 None OVC                          None None None 16 None None None None None None None None None None None None None None SPECI KBBG 280715Z AUTO 09006KT 10SM OVC016 01/M02 A3007 RMK AO2
001 KSGF 37.23 -93.38 00 67.61 KHFJ 36.90 -94.02 1235805300 2009-02-28 07:15:00 10 -10 20 5 None 1000 10194 None 6 None OVC                          None None None 17 None None None None None None None None None None None None None None METAR KHFJ 280715Z AUTO 02005KT 10SM OVC017 01/M01 A3010 RMK AO1
001 KSGF 37.23 -93.38 00 79.47 KBBG 36.53 -93.20 1235806500 2009-02-28 07:35:00 10 -20 70 3 None 1000 10190 None 6 None OVC                          None None None 16 None None None None None None None None None None None None None None METAR KBBG 280735Z AUTO 07003KT 10SM OVC016 01/M02 A3009 RMK AO2
001 KSGF 37.23 -93.38 00 67.61 KHFJ 36.90 -94.02 1235806500 2009-02-28 07:35:00 10 -10 0 0 None 1000 10197 None 6 None OVC                          None None None 17 None None None None None None None None None None None None None None METAR KHFJ 280735Z AUTO 00000KT 10SM OVC017 01/M01 A3011 RMK AO1
001 KSGF 37.23 -93.38 00 99.61 KJLN 37.15 -94.50 1235807100 2009-02-28 08:00:00 10 -20 10 11 None 800 10221 None 6 None OVC                          None None None 14 None None None None None None None None None None None None None None METAR KJLN 280745Z AUTO 01011KT 8SM OVC014 01/M02 A3018 RMK AO2
001 KSGF 37.23 -93.38 00 0.00 KSGF 37.23 -93.38 1235807520 2009-02-28 08:00:00 6 -28 50 9 None 1000 10201 10209 4 None OVC                          None None None 14 None None None None None None None None None None None None None None METAR KSGF 280752Z 05009KT 10SM OVC014 01/M03 A3012 RMK AO2 SLP209 T00061028
001 KSGF 37.23 -93.38 00 99.61 KJLN 37.15 -94.50 1235807580 2009-02-28 08:00:00 6 -22 350 14 None 800 10224 10230 6 None OVC                          None None None 14 None None None None None None None None None None None None None None METAR KJLN 280753Z AUTO 35014KT 8SM OVC014 01/M02 A3019 RMK AO2 SLP230 T00061022
001 KSGF 37.23 -93.38 00 67.61 KHFJ 36.90 -94.02 1235807700 2009-02-28 08:00:00 10 -10 340 6 None 1000 10204 None 6 None OVC                          None None None 15 None None None None None None None None None None None None None None METAR KHFJ 280755Z AUTO 34006KT 10SM OVC015 01/M01 A3013 RMK AO1
001 KSGF 37.23 -93.38 00 79.47 KBBG 36.53 -93.20 1235807700 2009-02-28 08:00:00 10 -20 50 3 None 1000 10190 None 6 None OVC                          None None None 16 None None None None None None None None None None None None None None METAR KBBG 280755Z AUTO 05003KT 10SM OVC016 01/M02 A3009 RMK AO2
001 KSGF 37.23 -93.38 01 67.61 KHFJ 36.90 -94.02 1235808900 2009-02-28 08:15:00 10 -10 350 5 None 1000 10207 None 6 None OVC                          None None None 15 None None None None None None None None None None None None None None METAR KHFJ 280815Z AUTO 35005KT 10SM OVC015 01/M01 A3014 RMK AO1
001 KSGF 37.23 -93.38 01 79.47 KBBG 36.53 -93.20 1235808900 2009-02-28 08:15:00 10 -20 40 4 None 1000 10187 None 6 None OVC                          None None None 16 None None None None None None None None None None None None None None SPECI KBBG 280815Z AUTO 04004KT 10SM OVC016 01/M02 A3008 RMK AO2
001 KSGF 37.23 -93.38 01 79.47 KBBG 36.53 -93.20 1235810100 2009-02-28 08:35:00 10 -20 350 6 None 1000 10197 None 6 None OVC                          None None None 16 None None None None None None None None None None None None None None SPECI KBBG 280835Z AUTO 35006KT 10SM OVC016 01/M02 A3011 RMK AO2
001 KSGF 37.23 -93.38 01 67.61 KHFJ 36.90 -94.02 1235810100 2009-02-28 08:35:00 10 -10 340 9 None 1000 10211 None 6 None OVC                          None None None 13 None None None None None None None None None None None None None None METAR KHFJ 280835Z AUTO 34009KT 10SM OVC013 01/M01 A3015 RMK AO1
001 KSGF 37.23 -93.38 01 0.00 KSGF 37.23 -93.38 1235811120 2009-02-28 09:00:00 0 -28 360 9 None 800 10207 10216 4 None OVC                          None None None 12 None None None 16 None None None None None None None None None None METAR KSGF 280852Z 36009KT 8SM OVC012 00/M03 A3014 RMK AO2 SLP216 T00001028 53016
001 KSGF 37.23 -93.38 01 99.61 KJLN 37.15 -94.50 1235811180 2009-02-28 09:00:00 -11 -33 360 12 None 600 10228 10232 6 BR OVC                          None None None 10 None None None 24 None None None None None None None None None None METAR KJLN 280853Z AUTO 36012KT 6SM BR OVC010 M01/M03 A3020 RMK AO2 SLP232 T10111033 51024
001 KSGF 37.23 -93.38 01 67.61 KHFJ 36.90 -94.02 1235811300 2009-02-28 09:00:00 10 -20 350 5 14 700 10211 None 6 None OVC                          None None None 13 None None None None None None None None None None None None None None METAR KHFJ 280855Z AUTO 35005G14KT 7SM OVC013 01/M02 A3015 RMK AO1
001 KSGF 37.23 -93.38 01 79.47 KBBG 36.53 -93.20 1235811300 2009-02-28 09:00:00 10 -20 330 9 None 1000 10201 None 6 None OVC                          None None None 16 None None None None None None None None None None None None None None METAR KBBG 280855Z AUTO 33009KT 10SM OVC016 01/M02 A3012 RMK AO2
002 KBUF 42.93 -78.73 22 53.38 CWWZ 43.25 -79.22 1235797200 2009-02-28 05:00:00 -67 -111 350 13 None None None 10267 6 None None                          None None None None None None None 41 None None None None None None None None None None METAR CWWZ 280500Z AUTO 35013KT M07/M11 RMK AO1 PK WND 33023/0406 SLP267 T10671111 51041
002 KBUF 42.93 -78.73 22 93.96 CYTZ 43.62 -79.40 1235797200 2009-02-28 05:00:00 -100 -180 20 13 20 900 10268 10273 2 None CLR                          None None None None None None None None None None None None None None None None None None METAR CYTZ 280500Z AUTO 02013G20KT 9SM CLR M10/M18 A3032 RMK SLP273
002 KBUF 42.93 -78.73 22 98.54 CXTO 43.67 -79.40 1235797200 2009-02-28 05:00:00 -101 -158 None None None None None 10264 6 None None                          None None None None None None None 43 None None None None None None None None None None METAR CXTO 280500Z AUTO M10/M16 RMK AO1 SLP264 T11011158 53043
002 KBUF 42.93 -78.73 22 94.64 CWWB 43.30 -79.78 1235797200 2009-02-28 05:00:00 -79 -148 360 15 20 None None 10272 6 None None                          None None None None None None None 43 None None None None None None None None None None METAR CWWB 280500Z AUTO 36015G20KT M08/M15 RMK AO1 SLP272 T10791148 51043
002 KBUF 42.93 -78.73 22 61.13 CXVN 43.18 -79.40 1235797200 2009-02-28 05:00:00 -71 -108 360 14 19 None None 10260 6 None None                          None None None None None None None 40 None None None None None None None None None None METAR CXVN 280500Z AUTO 36014G19KT M07/M11 RMK AO1 PK WND 02020/0426 SLP260 T10711108 51040
002 KBUF 42.93 -78.73 22 26.66 KIAG 43.12 -78.93 1235797500 2009-02-28 05:05:00 -80 -120 360 11 None 700 10251 None 6 -SN BKN                          OVC None None 26 31 None None None None None None None 5 None None None None None METAR KIAG 280505Z AUTO 36011KT 7SM -SN BKN026 OVC031 M08/M12 A3027 RMK AO2 P0000
002 KBUF 42.93 -78.73 22 99.36 KJHW 42.13 -79.27 1235798100 2009-02-28 05:15:00 -80 -120 320 8 None 800 10218 None 6 None BKN                          OVC None None 12 17 None None None None None None None None None None None None None METAR KJHW 280515Z AUTO 32008KT 8SM BKN012 OVC017 M08/M12 A3017 RMK AO1
002 KBUF 42.93 -78.73 22 99.36 KJHW 42.13 -79.27 1235799300 2009-02-28 05:35:00 -80 -120 320 8 None 800 10224 None 6 None OVC                          None None None 10 None None None None None None None None None None None None None None METAR KJHW 280535Z AUTO 32008KT 8SM OVC010 M08/M12 A3019 RMK AO1
002 KBUF 42.93 -78.73 22 0.00 KBUF 42.93 -78.73 1235799540 2009-02-28 05:39:00 -80 -110 340 10 None 300 10248 None 4 -SN FEW                          OVC None None 16 27 None None None None None None None 5 None None None None None METAR KBUF 280539Z 34010KT 3SM -SN FEW016 OVC027 M08/M11 A3026 RMK AO2 P0000
002 KBUF 42.93 -78.73 22 91.67 KDSV 42.57 -77.72 1235799540 2009-02-28 05:39:00 -60 -80 330 12 None 250 10231 None 6 -SN FEW                          BKN OVC None 17 25 30 None None None None None None 5 None None None None None METAR KDSV 280539Z AUTO 33012KT 2 1/2SM -SN FEW017 BKN025 OVC030 M06/M08 A3021 RMK AO2 P0000
002 KBUF 42.93 -78.73 22 65.62 KDKK 42.50 -79.28 1235800380 2009-02-28 06:00:00 -61 -89 10 8 None 900 10258 10266 6 None SCT                          BKN OVC None 16 23 28 None 34 -22 -61 None None None None None None None None METAR KDKK 280553Z AUTO 01008KT 9SM SCT016 BKN023 OVC028 M06/M09 A3029 RMK AO2 SLP266 T10611089 11022 21061 51034
002 KBUF 42.93 -78.73 22 26.66 KIAG 43.12 -78.93 1235800380 2009-02-28 06:00:00 -83 -117 320 15 None 600 10262 10273 6 -SN OVC                          None None None 24 None None None 37 -50 -83 None None 5 None 5 None None None METAR KIAG 280553Z AUTO 32015KT 6SM -SN OVC024 M08/M12 A3030 RMK AO2 SLP273 P0000 60000 T10831117 11050 21083 51037
002 KBUF 42.93 -78.73 22 91.67 KDSV 42.57 -77.72 1235800440 2009-02-28 05:54:00 -56 -83 340 12 None 300 10235 10249 6 -SN SCT                          OVC None None 18 25 None None 34 33 -56 None None 5 None None None None None SPECI KDSV 280554Z AUTO 34012KT 3SM -SN SCT018 OVC025 M06/M08 A3022 RMK AO2 SLP249 P0000 60000 T10561083 10033 21056 51034
002 KBUF 42.93 -78.73 22 87.93 KROC 43.12 -77.68 1235800440 2009-02-28 06:00:00 -67 -106 320 10 None 500 10245 10251 4 -SN FEW                          SCT OVC None 14 19 32 None 41 -28 -67 None None 5 None 5 None None None METAR KROC 280554Z 32010KT 5SM -SN FEW014 SCT019 OVC032 M07/M11 A3025 RMK AO2 SLP251 931001 CIG 017V023 P0000 60000 T10671106 11028 21067 51041
002 KBUF 42.93 -78.73 22 0.00 KBUF 42.93 -78.73 1235800440 2009-02-28 06:00:00 -83 -117 350 9 None 400 10255 10261 4 -SN FEW                          OVC None None 16 29 None None 37 -50 -83 None None 5 None 5 None 1000 None METAR KBUF 280554Z 35009KT 4SM -SN FEW016 OVC029 M08/M12 A3028 RMK AO2 SLP261 4/001 P0000 60000 T10831117 11050 21083 51037
002 KBUF 42.93 -78.73 22 99.36 KJHW 42.13 -79.27 1235800500 2009-02-28 05:55:00 -80 -120 320 9 None 700 10224 None 6 None OVC                          None None None 12 None None None None -40 -80 None None None None None None None None SPECI KJHW 280555Z AUTO 32009KT 7SM OVC012 M08/M12 A3019 RMK AO1 11040 21080
002 KBUF 42.93 -78.73 23 53.38 CWWZ 43.25 -79.22 1235800800 2009-02-28 06:00:00 -74 -113 360 15 None None None 10281 6 None None                          None None None None None None None 37 None None None None None None None None None None METAR CWWZ 280600Z AUTO 36015KT M07/M11 RMK AO1 PK WND 01019/0526 SLP281 T10741113 51037
002 KBUF 42.93 -78.73 23 61.13 CXVN 43.18 -79.40 1235800800 2009-02-28 06:00:00 -84 -128 360 13 18 None None 10276 6 None None                          None None None None None None None 40 None None None None None None None None None None METAR CXVN 280600Z AUTO 36013G18KT M08/M13 RMK AO1 PK WND 36022/0508 SLP276 T10841128 52040
002 KBUF 42.93 -78.73 23 94.64 CWWB 43.30 -79.78 1235800800 2009-02-28 06:00:00 -89 -157 360 12 None None None 10286 6 None None                          None None None None None None None 41 None None None None None None None None None None METAR CWWB 280600Z AUTO 36012KT M09/M16 RMK AO1 SLP286 T10891157 52041
002 KBUF 42.93 -78.73 23 93.96 CYTZ 43.62 -79.40 1235800800 2009-02-28 06:00:00 -110 -180 350 13 None 900 10282 10286 2 None CLR                          None None None None None None None None None None None None None None None None None None METAR CYTZ 280600Z AUTO 35013KT 9SM CLR M11/M18 A3036 RMK SLP286
002 KBUF 42.93 -78.73 23 98.54 CXTO 43.67 -79.40 1235800800 2009-02-28 06:00:00 -111 -164 None None None None None 10278 6 None None                          None None None None None None None 43 None None None None None None None None None None METAR CXTO 280600Z AUTO M11/M16 RMK AO1 SLP278 T11111164 51043
002 KBUF 42.93 -78.73 23 99.36 KJHW 42.13 -79.27 1235801700 2009-02-28 06:15:00 -80 -120 330 5 None 500 10228 None 6 None OVC                          None None None 12 None None None None None None None None None None None None None None METAR KJHW 280615Z AUTO 33005KT 5SM OVC012 M08/M12 A3020 RMK AO1
002 KBUF 42.93 -78.73 23 99.36 KJHW 42.13 -79.27 1235802900 2009-02-28 06:35:00 -80 -120 330 8 None 400 10228 None 6 None OVC                          None None None 14 None None None None None None None None None None None None None None METAR KJHW 280635Z AUTO 33008KT 4SM OVC014 M08/M12 A3020 RMK AO1
002 KBUF 42.93 -78.73 23 65.62 KDKK 42.50 -79.28 1235803980 2009-02-28 07:00:00 -72 -100 10 11 None 900 10268 10276 6 None FEW                          OVC None None 17 28 None None None None None None None None None None None None None METAR KDKK 280653Z AUTO 01011KT 9SM FEW017 OVC028 M07/M10 A3032 RMK AO2 SLP276 T10721100
002 KBUF 42.93 -78.73 23 26.66 KIAG 43.12 -78.93 1235803980 2009-02-28 07:00:00 -89 -128 340 11 None 900 10272 10286 6 None OVC                          None None None 26 None None None None None None None None 5 None None None None None METAR KIAG 280653Z AUTO 34011KT 9SM OVC026 M09/M13 A3033 RMK AO2 SNE51 SLP286 P0000 T10891128
002 KBUF 42.93 -78.73 23 91.67 KDSV 42.57 -77.72 1235804040 2009-02-28 07:00:00 -67 -100 330 14 None 600 10251 10264 6 -SN OVC                          None None None 29 None None None None None None None None 5 None None None None None METAR KDSV 280654Z AUTO 33014KT 6SM -SN OVC029 M07/M10 A3027 RMK AO2 SLP264 P0000 T10671100
002 KBUF 42.93 -78.73 23 0.00 KBUF 42.93 -78.73 1235804040 2009-02-28 07:00:00 -89 -122 340 11 None 300 10262 10271 4 -SN FEW                          OVC None None 18 27 None None None None None None None 5 None None None None None METAR KBUF 280654Z 34011KT 3SM -SN FEW018 OVC027 M09/M12 A3030 RMK AO2 SLP271 P0000 T10891122
002 KBUF 42.93 -78.73 23 87.93 KROC 43.12 -77.68 1235804040 2009-02-28 07:00:00 -72 -106 300 7 None 300 10258 10263 4 -SN FEW                          SCT OVC None 18 28 34 None None None None None None 5 None None None None None METAR KROC 280654Z 30007KT 3SM -SN FEW018 SCT028 OVC034 M07/M11 A3029 RMK AO2 SLP263 P0000 T10721106
002 KBUF 42.93 -78.73 23 99.36 KJHW 42.13 -79.27 1235804100 2009-02-28 07:00:00 -90 -130 340 8 None 300 10231 None 6 None BKN                          OVC None None 9 14 None None 24 None None None None None None None None None None METAR KJHW 280655Z AUTO 34008KT 3SM BKN009 OVC014 M09/M13 A3021 RMK AO1 52024
002 KBUF 42.93 -78.73 00 53.38 CWWZ 43.25 -79.22 1235804400 2009-02-28 07:00:00 -81 -119 360 13 None None None 10290 6 None None                          None None None None None None None 32 None None None None None None None None None None METAR CWWZ 280700Z AUTO 36013KT M08/M12 RMK AO1 PK WND 02020/0601 SLP290 T10811119 51032
002 KBUF 42.93 -78.73 00 94.64 CWWB 43.30 -79.78 1235804400 2009-02-28 07:00:00 -100 -161 360 12 None None None 10295 6 None None                          None None None None None None None 36 None None None None None None None None None None METAR CWWB 280700Z AUTO 36012KT M10/M16 RMK AO1 SLP295 T11001161 51036
002 KBUF 42.93 -78.73 00 61.13 CXVN 43.18 -79.40 1235804400 2009-02-28 07:00:00 -89 -128 360 10 None None None 10284 6 None None                          None None None None None None None 33 None None None None None None None None None None METAR CXVN 280700Z AUTO 36010KT M09/M13 RMK AO1 PK WND 35017/0619 SLP284 T10891128 51033
002 KBUF 42.93 -78.73 00 93.96 CYTZ 43.62 -79.40 1235804400 2009-02-28 07:00:00 -120 -200 340 12 18 900 10292 10297 2 None CLR                          None None None None None None None None None None None None None None None None None None METAR CYTZ 280700Z AUTO 34012G18KT 9SM CLR M12/M20 A3039 RMK SLP297
002 KBUF 42.93 -78.73 00 98.54 CXTO 43.67 -79.40 1235804400 2009-02-28 07:00:00 -120 -172 None None None None None 10286 6 None None                          None None None None None None None 35 None None None None None None None None None None METAR CXTO 280700Z AUTO M12/M17 RMK AO1 SLP286 T11201172 51035
002 KBUF 42.93 -78.73 00 87.93 KROC 43.12 -77.68 1235804700 2009-02-28 07:05:00 -70 -110 310 7 None 200 10258 None 4 -SN FEW                          OVC None None 19 32 None None None None None None None 5 None None None None None METAR KROC 280705Z 31007KT 2SM -SN FEW019 OVC032 M07/M11 A3029 RMK AO2 P0000
002 KBUF 42.93 -78.73 00 99.36 KJHW 42.13 -79.27 1235805300 2009-02-28 07:15:00 -90 -130 350 8 None 400 10231 None 6 None FEW                          OVC None None 9 16 None None None None None None None None None None None None None METAR KJHW 280715Z AUTO 35008KT 4SM FEW009 OVC016 M09/M13 A3021 RMK AO1
002 KBUF 42.93 -78.73 00 65.62 KDKK 42.50 -79.28 1235805540 2009-02-28 07:19:00 -70 -100 10 8 None 700 10268 None 6 None OVC                          None None None 30 None None None None None None None None None None None None None None SPECI KDKK 280719Z AUTO 01008KT 7SM OVC030 M07/M10 A3032 RMK AO2
002 KBUF 42.93 -78.73 00 91.67 KDSV 42.57 -77.72 1235806320 2009-02-28 07:32:00 -70 -110 340 12 None 700 10255 None 6 -SN OVC                          None None None 31 None None None None None None None None 5 None None None None None SPECI KDSV 280732Z AUTO 34012KT 7SM -SN OVC031 M07/M11 A3028 RMK AO2 P0000
002 KBUF 42.93 -78.73 00 87.93 KROC 43.12 -77.68 1235806440 2009-02-28 07:34:00 -70 -110 330 7 None 175 10265 None 4 -SN FEW                          BKN OVC None 14 20 32 None None None None None None 5 None None None None None SPECI KROC 280734Z 33007KT 1 3/4SM -SN FEW014 BKN020 OVC032 M07/M11 A3031 RMK AO2 P0000
002 KBUF 42.93 -78.73 00 99.36 KJHW 42.13 -79.27 1235806500 2009-02-28 07:35:00 -90 -130 340 8 None 400 10231 None 6 None OVC                          None None None 18 None None None None None None None None None None None None None None METAR KJHW 280735Z AUTO 34008KT 4SM OVC018 M09/M13 A3021 RMK AO1
002 KBUF 42.93 -78.73 00 87.93 KROC 43.12 -77.68 1235806920 2009-02-28 07:42:00 -70 -110 320 9 None 200 10265 None 4 -SN SCT                          BKN OVC None 14 20 30 None None None None None None 5 None None None None None METAR KROC 280742Z 32009KT 2SM -SN SCT014 BKN020 OVC030 M07/M11 A3031 RMK AO2 P0000
002 KBUF 42.93 -78.73 00 26.66 KIAG 43.12 -78.93 1235807580 2009-02-28 08:00:00 -94 -128 330 10 None 900 10275 10292 6 -SN OVC                          None None None 22 None None None None None None None None 5 None None None None None METAR KIAG 280753Z AUTO 33010KT 9SM -SN OVC022 M09/M13 A3034 RMK AO2 SNB0657 SLP292 P0000 T10941128
002 KBUF 42.93 -78.73 00 65.62 KDKK 42.50 -79.28 1235807580 2009-02-28 08:00:00 -78 -106 350 12 None 900 10268 10276 6 None FEW                          OVC None None 17 30 None None None None None None None None None None None None None METAR KDKK 280753Z AUTO 35012KT 9SM FEW017 OVC030 M08/M11 A3032 RMK AO2 SLP276 T10781106
002 KBUF 42.93 -78.73 00 91.67 KDSV 42.57 -77.72 1235807640 2009-02-28 08:00:00 -72 -106 330 13 None 500 10255 10269 6 -SN OVC                          None None None 31 None None None None None None None None 5 None None None None None METAR KDSV 280754Z AUTO 33013KT 5SM -SN OVC031 M07/M11 A3028 RMK AO2 SLP269 P0000 T10721106
002 KBUF 42.93 -78.73 00 0.00 KBUF 42.93 -78.73 1235807640 2009-02-28 08:00:00 -94 -128 320 9 None 700 10265 10276 4 -SN FEW                          OVC None None 17 23 None None None None None None None 5 None None None None None METAR KBUF 280754Z 32009KT 7SM -SN FEW017 OVC023 M09/M13 A3031 RMK AO2 SLP276 P0000 T10941128
002 KBUF 42.93 -78.73 00 87.93 KROC 43.12 -77.68 1235807640 2009-02-28 08:00:00 -72 -111 330 9 None 200 10265 10269 4 -SN FEW                          BKN OVC None 14 21 33 None None None None None None 5 None None None None None METAR KROC 280754Z 33009KT 2SM -SN FEW014 BKN021 OVC033 M07/M11 A3031 RMK AO2 SLP269 P0000 T10721111
002 KBUF 42.93 -78.73 00 99.36 KJHW 42.13 -79.27 1235807700 2009-02-28 08:00:00 -90 -130 360 7 None 500 10228 None 6 None FEW                          OVC None None 10 18 None None None None None None None None None None None None None METAR KJHW 280755Z AUTO 36007KT 5SM FEW010 OVC018 M09/M13 A3020 RMK AO1
002 KBUF 42.93 -78.73 01 98.54 CXTO 43.67 -79.40 1235808000 2009-02-28 08:00:00 -128 -181 None None None None None 10296 6 None None                          None None None None None None None 30 None None None None None None None None None None METAR CXTO 280800Z AUTO M13/M18 RMK AO1 SLP296 T11281181 51030
002 KBUF 42.93 -78.73 01 61.13 CXVN 43.18 -79.40 1235808000 2009-02-28 08:00:00 -94 -133 10 12 None None None 10287 6 None None                          None None None None None None None 25 None None None None None None None None None None METAR CXVN 280800Z AUTO 01012KT M09/M13 RMK AO1 PK WND 36017/0756 SLP287 T10941133 51025
002 KBUF 42.93 -78.73 01 53.38 CWWZ 43.25 -79.22 1235808000 2009-02-28 08:00:00 -88 -122 10 12 None None None 10294 6 None None                          None None None None None None None 26 None None None None None None None None None None METAR CWWZ 280800Z AUTO 01012KT M09/M12 RMK AO1 PK WND 35018/0717 SLP294 T10881122 51026
002 KBUF 42.93 -78.73 01 93.96 CYTZ 43.62 -79.40 1235808000 2009-02-28 08:00:00 -120 -200 350 8 None 900 10299 10304 2 None CLR                          None None None None None None None None None None None None None None None None None None METAR CYTZ 280800Z AUTO 35008KT 9SM CLR M12/M20 A3041 RMK SLP304
002 KBUF 42.93 -78.73 01 94.64 CWWB 43.30 -79.78 1235808000 2009-02-28 08:00:00 -114 -177 360 15 None None None 10300 6 None None                          None None None None None None None 27 None None None None None None None None None None METAR CWWB 280800Z AUTO 36015KT M11/M18 RMK AO1 SLP300 T11141177 51027
002 KBUF 42.93 -78.73 01 87.93 KROC 43.12 -77.68 1235808240 2009-02-28 08:04:00 -80 -110 330 10 None 250 10265 None 4 -SN FEW                          SCT OVC None 14 23 33 None None None None None None 5 None None None None None METAR KROC 280804Z 33010KT 2 1/2SM -SN FEW014 SCT023 OVC033 M08/M11 A3031 RMK AO2 P0000
002 KBUF 42.93 -78.73 01 87.93 KROC 43.12 -77.68 1235808720 2009-02-28 08:12:00 -80 -110 330 7 None 300 10265 None 4 -SN FEW                          SCT OVC None 14 23 31 None None None None None None 5 None None None None None METAR KROC 280812Z 33007KT 3SM -SN FEW014 SCT023 OVC031 M08/M11 A3031 RMK AO2 P0000
002 KBUF 42.93 -78.73 01 99.36 KJHW 42.13 -79.27 1235808900 2009-02-28 08:15:00 -100 -130 360 8 None 500 10228 None 6 None SCT                          OVC None None 10 16 None None None None None None None None None None None None None SPECI KJHW 280815Z AUTO 36008KT 5SM SCT010 OVC016 M10/M13 A3020 RMK AO1
002 KBUF 42.93 -78.73 01 87.93 KROC 43.12 -77.68 1235809140 2009-02-28 08:19:00 -80 -110 320 8 None 250 10265 None 4 -SN FEW                          SCT OVC None 16 21 31 None None None None None None 5 None None None None None METAR KROC 280819Z 32008KT 2 1/2SM -SN FEW016 SCT021 OVC031 M08/M11 A3031 RMK AO2 P0000
002 KBUF 42.93 -78.73 01 87.93 KROC 43.12 -77.68 1235809860 2009-02-28 08:31:00 -80 -110 320 11 None 200 10268 None 4 -SN FEW                          BKN OVC None 12 26 31 None None None None None None 5 None None None None None METAR KROC 280831Z 32011KT 2SM -SN FEW012 BKN026 OVC031 M08/M11 A3032 RMK AO2 VIS 1 3/4V2 1/2 P0000
002 KBUF 42.93 -78.73 01 99.36 KJHW 42.13 -79.27 1235810100 2009-02-28 08:35:00 -100 -140 350 5 None 700 10231 None 6 None FEW                          OVC None None 10 16 None None None None None None None None None None None None None METAR KJHW 280835Z AUTO 35005KT 7SM FEW010 OVC016 M10/M14 A3021 RMK AO1
002 KBUF 42.93 -78.73 01 65.62 KDKK 42.50 -79.28 1235811180 2009-02-28 09:00:00 -83 -117 10 11 None 1000 10268 10278 6 None OVC                          None None None 30 None None None 9 None None None None None None None None None None METAR KDKK 280853Z AUTO 01011KT 10SM OVC030 M08/M12 A3032 RMK AO2 SLP278 T10831117 51009
002 KBUF 42.93 -78.73 01 26.66 KIAG 43.12 -78.93 1235811180 2009-02-28 09:00:00 -100 -128 360 12 None 900 10279 10296 6 -SN OVC                          None None None 20 None None None 17 None None None None 5 5 None None None None METAR KIAG 280853Z AUTO 36012KT 9SM -SN OVC020 M10/M13 A3035 RMK AO2 SLP296 P0000 60000 T11001128 51017
002 KBUF 42.93 -78.73 01 91.67 KDSV 42.57 -77.72 1235811240 2009-02-28 09:00:00 -72 -122 330 13 None 900 10258 10273 6 -SN FEW                          OVC None None 24 33 None None 22 None None None None 5 5 None None None None METAR KDSV 280854Z AUTO 33013KT 9SM -SN FEW024 OVC033 M07/M12 A3029 RMK AO2 SNE08B52 SLP273 P0000 60000 T10721122 51022
002 KBUF 42.93 -78.73 01 87.93 KROC 43.12 -77.68 1235811240 2009-02-28 09:00:00 -83 -117 330 10 None 250 10268 10276 4 -SN FEW                          SCT OVC None 12 19 28 None 23 None None None None 5 5 None None None None METAR KROC 280854Z 33010KT 2 1/2SM -SN FEW012 SCT019 OVC028 M08/M12 A3032 RMK AO2 SLP276 P0000 60000 T10831117 51023
002 KBUF 42.93 -78.73 01 0.00 KBUF 42.93 -78.73 1235811240 2009-02-28 09:00:00 -100 -133 340 8 None 400 10268 10280 4 -SN OVC                          None None None 21 None None None 16 None None None None 5 5 None None None None METAR KBUF 280854Z 34008KT 4SM -SN OVC021 M10/M13 A3032 RMK AO2 SLP280 P0000 60000 T11001133 51016
002 KBUF 42.93 -78.73 01 99.36 KJHW 42.13 -79.27 1235811300 2009-02-28 09:00:00 -100 -140 360 8 None 1000 10231 None 6 None OVC                          None None None 14 None None None None None None None None None None None None None None METAR KJHW 280855Z AUTO 36008KT 10SM OVC014 M10/M14 A3021 RMK AO1
003 KALB 42.75 -73.80 22 55.48 KPSF 42.43 -73.28 1235797500 2009-02-28 05:05:00 20 10 0 0 None 700 10126 None 6 -RA BKN                          OVC None None 12 27 None None None None None None None 10 None None None None None METAR KPSF 280505Z AUTO 00000KT 7SM -RA BKN012 OVC027 02/01 A2990 RMK AO2 P0001
003 KALB 42.75 -73.80 22 47.13 KDDH 42.88 -73.25 1235799540 2009-02-28 05:39:00 10 -10 240 8 17 200 10140 None 6 -SN BR FEW                          BKN OVC None 8 12 45 None None None None None None 5 None None None None None METAR KDDH 280539Z AUTO 24008G17KT 2SM -SN BR FEW008 BKN012 OVC045 01/M01 A2994 RMK AO2 PK WND 25026/0516 RAE19UPB19E21SNB21 PRESRR P0000
003 KALB 42.75 -73.80 22 47.13 KDDH 42.88 -73.25 1235799900 2009-02-28 06:00:00 10 -10 230 9 None 300 10146 None 6 -SN BR BKN                          BKN OVC None 8 12 45 None None None None None None 5 None None None None None METAR KDDH 280545Z AUTO 23009KT 3SM -SN BR BKN008 BKN012 OVC045 01/M01 A2996 RMK AO2 PK WND 25026/0516 RAE19UPB19E21SNB21 PRESRR P0000
003 KALB 42.75 -73.80 22 0.00 KALB 42.75 -73.80 1235800260 2009-02-28 06:00:00 6 -39 290 16 23 1000 10167 10167 4 None BKN                          BKN None None 23 29 None None 44 94 6 None None None None 5 None None None METAR KALB 280551Z 29016G23KT 10SM BKN023 BKN029 01/M04 A3002 RMK AO2 PK WND 29031/0502 SLP167 60000 T00061039 10094 20006 53044
003 KALB 42.75 -73.80 22 51.76 KAQW 42.70 -73.17 1235800320 2009-02-28 06:00:00 22 0 280 11 15 900 10143 10144 6 UP FEW                          BKN OVC None 17 24 45 None 30 106 22 None None 5 None 100 None None None METAR KAQW 280552Z AUTO 28011G15KT 9SM UP FEW017 BKN024 OVC045 02/00 A2995 RMK AO2 RAE09UPB45 SLP144 P0000 60010 T00220000 10106 20022 53030
003 KALB 42.75 -73.80 22 66.13 KGFL 43.33 -73.62 1235800380 2009-02-28 06:00:00 39 11 260 4 None 1000 10140 10143 6 None SCT                          BKN OVC None 30 38 65 None 47 78 33 None None None None 120 None None None METAR KGFL 280553Z AUTO 26004KT 10SM SCT030 BKN038 OVC065 04/01 A2994 RMK AO2 SLP143 60012 T00390011 10078 20033 53047
003 KALB 42.75 -73.80 22 55.48 KPSF 42.43 -73.28 1235800440 2009-02-28 06:00:00 6 -11 0 6 21 500 10136 10134 6 -SN BR OVC                          None None None 14 None None None 31 83 6 None None 20 None 80 None None None METAR KPSF 280554Z AUTO VRB06G21KT 5SM -SN BR OVC014 01/M01 A2993 RMK AO2 RAE26UPB49E52SNB26E49B52 SLP134 P0002 60008 T00061011 10083 20006 51031
003 KALB 42.75 -73.80 22 47.13 KDDH 42.88 -73.25 1235800440 2009-02-28 05:54:00 0 -11 0 6 None 250 10143 10145 6 -SN BR BKN                          OVC None None 8 19 None None 44 106 0 None None 5 None None None None None SPECI KDDH 280554Z AUTO VRB06KT 2 1/2SM -SN BR BKN008 OVC019 00/M01 A2995 RMK AO2 PK WND 25026/0516 RAE19UPB19E21SNB21 SLP145 P0000 60002 T00001011 10106 20000 53044
003 KALB 42.75 -73.80 23 66.13 KGFL 43.33 -73.62 1235801220 2009-02-28 06:07:00 30 -10 360 14 21 1000 10146 None 6 None SCT                          BKN OVC None 24 28 38 None None None None None None None None None None None None METAR KGFL 280607Z AUTO 36014G21KT 10SM SCT024 BKN028 OVC038 03/M01 A2996 RMK AO2 PRESRR
003 KALB 42.75 -73.80 23 47.13 KDDH 42.88 -73.25 1235801280 2009-02-28 06:08:00 0 -10 200 6 None 600 10150 None 6 -SN BR OVC                          None None None 8 None None None None None None None None 5 None None None None None METAR KDDH 280608Z AUTO 20006KT 6SM -SN BR OVC008 00/M01 A2997 RMK AO2 CIG 006V012 P0000
003 KALB 42.75 -73.80 23 55.48 KPSF 42.43 -73.28 1235802120 2009-02-28 06:22:00 -10 -30 300 7 23 1000 10143 None 6 None SCT                          SCT OVC None 12 17 32 None None None None None None 5 None None None None None METAR KPSF 280622Z AUTO 30007G23KT 270V340 10SM SCT012 SCT017 OVC032 M01/M03 A2995 RMK AO2 SNE12 P0000
003 KALB 42.75 -73.80 23 51.76 KAQW 42.70 -73.17 1235802420 2009-02-28 06:27:00 20 -20 270 16 21 1000 10146 None 6 None FEW                          SCT OVC None 18 24 47 None None None None None None 5 None None None None None METAR KAQW 280627Z AUTO 27016G21KT 10SM FEW018 SCT024 OVC047 02/M02 A2996 RMK AO2 UPE04 P0000
003 KALB 42.75 -73.80 23 55.48 KPSF 42.43 -73.28 1235803200 2009-02-28 06:40:00 -10 -30 300 7 19 1000 10150 None 6 None BKN                          OVC None None 15 34 None None None None None None None 5 None None None None None METAR KPSF 280640Z AUTO 30007G19KT 260V340 10SM BKN015 OVC034 M01/M03 A2997 RMK AO2 SNE12 PRESRR P0000
003 KALB 42.75 -73.80 23 47.13 KDDH 42.88 -73.25 1235803500 2009-02-28 07:00:00 -10 -30 230 7 None 1000 10160 None 6 None OVC                          None None None 10 None None None None None None None None 10 None None None None None METAR KDDH 280645Z AUTO 23007KT 170V270 10SM OVC010 M01/M03 A3000 RMK AO2 SNE14 P0001
003 KALB 42.75 -73.80 23 0.00 KALB 42.75 -73.80 1235803860 2009-02-28 07:00:00 -11 -50 290 14 24 1000 10187 10188 4 None OVC                          None None None 21 None None None None None None None None None None None None None None METAR KALB 280651Z 29014G24KT 10SM OVC021 M01/M05 A3008 RMK AO2 PK WND 29029/0620 PRESRR SLP188 T10111050
003 KALB 42.75 -73.80 23 51.76 KAQW 42.70 -73.17 1235803920 2009-02-28 07:00:00 6 -22 270 17 29 1000 10157 10159 6 None FEW                          SCT OVC None 18 25 49 None None None None None None 5 None None None None None METAR KAQW 280652Z AUTO 27017G29KT 10SM FEW018 SCT025 OVC049 01/M02 A2999 RMK AO2 PK WND 27029/0647 UPE04 PRESRR SLP159 P0000 T00061022
003 KALB 42.75 -73.80 23 66.13 KGFL 43.33 -73.62 1235803980 2009-02-28 07:00:00 6 -39 340 12 19 1000 10163 10169 6 None OVC                          None None None 27 None None None None None None None None None None None None None None METAR KGFL 280653Z AUTO 34012G19KT 10SM OVC027 01/M04 A3001 RMK AO2 SLP169 T00061039
003 KALB 42.75 -73.80 23 47.13 KDDH 42.88 -73.25 1235804040 2009-02-28 07:00:00 -6 -28 0 3 None 1000 10160 10163 6 None OVC                          None None None 10 None None None None None None None None 10 None None None None None METAR KDDH 280654Z AUTO VRB03KT 10SM OVC010 M01/M03 A3000 RMK AO2 SNE14 SLP163 P0001 T10061028
003 KALB 42.75 -73.80 23 55.48 KPSF 42.43 -73.28 1235804040 2009-02-28 07:00:00 -11 -33 0 5 17 1000 10150 10150 6 None OVC                          None None None 13 None None None None None None None None 5 None None None None None METAR KPSF 280654Z AUTO VRB05G17KT 10SM OVC013 M01/M03 A2997 RMK AO2 SNE12 SLP150 P0000 T10111033
003 KALB 42.75 -73.80 00 51.76 KAQW 42.70 -73.17 1235804520 2009-02-28 07:02:00 10 -30 260 19 29 1000 10157 None 6 None BKN                          BKN OVC None 18 25 49 None None None None None None None None None None None None METAR KAQW 280702Z AUTO 26019G29KT 10SM BKN018 BKN025 OVC049 01/M03 A2999 RMK AO2 PK WND 26029/0702
003 KALB 42.75 -73.80 00 66.13 KGFL 43.33 -73.62 1235805180 2009-02-28 07:13:00 0 -40 320 16 23 1000 10167 None 6 None FEW                          OVC None None 27 37 None None None None None None None None None None None None None METAR KGFL 280713Z AUTO 32016G23KT 10SM FEW027 OVC037 00/M04 A3002 RMK AO2
003 KALB 42.75 -73.80 00 0.00 KALB 42.75 -73.80 1235807460 2009-02-28 08:00:00 -28 -67 290 10 17 1000 10197 10197 4 None OVC                          None None None 19 None None None None None None None None None None None None None None METAR KALB 280751Z 29010G17KT 10SM OVC019 M03/M07 A3011 RMK AO2 SLP197 T10281067
003 KALB 42.75 -73.80 00 51.76 KAQW 42.70 -73.17 1235807520 2009-02-28 08:00:00 -6 -28 270 8 18 1000 10163 10167 6 None BKN                          OVC None None 18 25 None None None None None None None None None None None None None METAR KAQW 280752Z AUTO 27008G18KT 10SM BKN018 OVC025 M01/M03 A3001 RMK AO2 PK WND 26029/0702 SLP167 T10061028
003 KALB 42.75 -73.80 00 66.13 KGFL 43.33 -73.62 1235807580 2009-02-28 08:00:00 -17 -67 360 16 None 1000 10180 10186 6 None FEW                          OVC None None 33 44 None None None None None None None None None None None None None METAR KGFL 280753Z AUTO 36016KT 10SM FEW033 OVC044 M02/M07 A3006 RMK AO2 SLP186 T10171067
003 KALB 42.75 -73.80 00 55.48 KPSF 42.43 -73.28 1235807640 2009-02-28 08:00:00 -28 -44 280 14 24 1000 10157 10158 6 None OVC                          None None None 11 None None None None None None None None None None None None None None METAR KPSF 280754Z AUTO 28014G24KT 10SM OVC011 M03/M04 A2999 RMK AO2 SLP158 T10281044
003 KALB 42.75 -73.80 00 47.13 KDDH 42.88 -73.25 1235807640 2009-02-28 08:00:00 -17 -39 250 7 14 1000 10163 10168 6 None OVC                          None None None 12 None None None None None None None None None None None None None None METAR KDDH 280754Z AUTO 25007G14KT 210V300 10SM OVC012 M02/M04 A3001 RMK AO2 SLP168 T10171039
003 KALB 42.75 -73.80 01 47.13 KDDH 42.88 -73.25 1235811000 2009-02-28 09:00:00 -30 -60 270 14 23 1000 10174 None 6 None OVC                          None None None 16 None None None None None None None None None None None None None None METAR KDDH 280850Z AUTO 27014G23KT 10SM OVC016 M03/M06 A3004 RMK AO2
003 KALB 42.75 -73.80 01 0.00 KALB 42.75 -73.80 1235811060 2009-02-28 09:00:00 -39 -83 310 14 26 1000 10204 10205 4 None SCT                          SCT OVC None 21 34 42 None 38 None None None None None None None None None None METAR KALB 280851Z 31014G26KT 10SM SCT021 SCT034 OVC042 M04/M08 A3013 RMK AO2 PK WND 30027/0813 SLP205 T10391083 51038
003 KALB 42.75 -73.80 01 51.76 KAQW 42.70 -73.17 1235811120 2009-02-28 09:00:00 -22 -56 260 10 19 1000 10174 10179 6 None OVC                          None None None 16 None None None 32 None None None None None 5 None None None None METAR KAQW 280852Z AUTO 26010G19KT 10SM OVC016 M02/M06 A3004 RMK AO2 SLP179 60000 T10221056 51032
003 KALB 42.75 -73.80 01 66.13 KGFL 43.33 -73.62 1235811180 2009-02-28 09:00:00 -44 -94 340 16 24 1000 10194 10200 6 None FEW                          OVC None None 37 46 None None 55 None None None None None None None None None None METAR KGFL 280853Z AUTO 34016G24KT 10SM FEW037 OVC046 M04/M09 A3010 RMK AO2 SLP200 T10441094 51055
003 KALB 42.75 -73.80 01 55.48 KPSF 42.43 -73.28 1235811240 2009-02-28 09:00:00 -44 -67 310 17 30 1000 10163 10166 6 None OVC                          None None None 13 None None None 27 None None None None None 5 None None None None METAR KPSF 280854Z AUTO 31017G30KT 280V340 10SM OVC013 M04/M07 A3001 RMK AO2 PK WND 29030/0848 SLP166 60000 T10441067 51027
003 KALB 42.75 -73.80 01 47.13 KDDH 42.88 -73.25 1235811240 2009-02-28 09:00:00 -28 -61 280 11 23 1000 10174 10177 6 None OVC                          None None None 16 None None None 13 None None None None None 10 None None None None METAR KDDH 280854Z AUTO 28011G23KT 10SM OVC016 M03/M06 A3004 RMK AO2 SLP177 60001 T10281061 51013
004 KALB 42.75 -73.80 22 55.48 KPSF 42.43 -73.28 1235797500 2009-02-28 05:05:00 20 10 0 0 None 700 10126 None 6 -RA BKN                          OVC None None 12 27 None None None None None None None 10 None None None None None METAR KPSF 280505Z AUTO 00000KT 7SM -RA BKN012 OVC027 02/01 A2990 RMK AO2 P0001
004 KALB 42.75 -73.80 22 47.13 KDDH 42.88 -73.25 1235799540 2009-02-28 05:39:00 10 -10 240 8 17 200 10140 None 6 -SN BR FEW                          BKN OVC None 8 12 45 None None None None None None 5 None None None None None METAR KDDH 280539Z AUTO 24008G17KT 2SM -SN BR FEW008 BKN012 OVC045 01/M01 A2994 RMK AO2 PK WND 25026/0516 RAE19UPB19E21SNB21 PRESRR P0000
004 KALB 42.75 -73.80 22 47.13 KDDH 42.88 -73.25 1235799900 2009-02-28 06:00:00 10 -10 230 9 None 300 10146 None 6 -SN BR BKN                          BKN OVC None 8 12 45 None None None None None None 5 None None None None None METAR KDDH 280545Z AUTO 23009KT 3SM -SN BR BKN008 BKN012 OVC045 01/M01 A2996 RMK AO2 PK WND 25026/0516 RAE19UPB19E21SNB21 PRESRR P0000
004 KALB 42.75 -73.80 22 0.00 KALB 42.75 -73.80 1235800260 2009-02-28 06:00:00 6 -39 290 16 23 1000 10167 10167 4 None BKN                          BKN None None 23 29 None None 44 94 6 None None None None 5 None None None METAR KALB 280551Z 29016G23KT 10SM BKN023 BKN029 01/M04 A3002 RMK AO2 PK WND 29031/0502 SLP167 60000 T00061039 10094 20006 53044
004 KALB 42.75 -73.80 22 51.76 KAQW 42.70 -73.17 1235800320 2009-02-28 06:00:00 22 0 280 11 15 900 10143 10144 6 UP FEW                          BKN OVC None 17 24 45 None 30 106 22 None None 5 None 100 None None None METAR KAQW 280552Z AUTO 28011G15KT 9SM UP FEW017 BKN024 OVC045 02/00 A2995 RMK AO2 RAE09UPB45 SLP144 P0000 60010 T00220000 10106 20022 53030
004 KALB 42.75 -73.80 22 66.13 KGFL 43.33 -73.62 1235800380 2009-02-28 06:00:00 39 11 260 4 None 1000 10140 10143 6 None SCT                          BKN OVC None 30 38 65 None 47 78 33 None None None None 120 None None None METAR KGFL 280553Z AUTO 26004KT 10SM SCT030 BKN038 OVC065 04/01 A2994 RMK AO2 SLP143 60012 T00390011 10078 20033 53047
004 KALB 42.75 -73.80 22 55.48 KPSF 42.43 -73.28 1235800440 2009-02-28 06:00:00 6 -11 0 6 21 500 10136 10134 6 -SN BR OVC                          None None None 14 None None None 31 83 6 None None 20 None 80 None None None METAR KPSF 280554Z AUTO VRB06G21KT 5SM -SN BR OVC014 01/M01 A2993 RMK AO2 RAE26UPB49E52SNB26E49B52 SLP134 P0002 60008 T00061011 10083 20006 51031
004 KALB 42.75 -73.80 22 47.13 KDDH 42.88 -73.25 1235800440 2009-02-28 05:54:00 0 -11 0 6 None 250 10143 10145 6 -SN BR BKN                          OVC None None 8 19 None None 44 106 0 None None 5 None None None None None SPECI KDDH 280554Z AUTO VRB06KT 2 1/2SM -SN BR BKN008 OVC019 00/M01 A2995 RMK AO2 PK WND 25026/0516 RAE19UPB19E21SNB21 SLP145 P0000 60002 T00001011 10106 20000 53044
004 KALB 42.75 -73.80 23 66.13 KGFL 43.33 -73.62 1235801220 2009-02-28 06:07:00 30 -10 360 14 21 1000 10146 None 6 None SCT                          BKN OVC None 24 28 38 None None None None None None None None None None None None METAR KGFL 280607Z AUTO 36014G21KT 10SM SCT024 BKN028 OVC038 03/M01 A2996 RMK AO2 PRESRR
004 KALB 42.75 -73.80 23 47.13 KDDH 42.88 -73.25 1235801280 2009-02-28 06:08:00 0 -10 200 6 None 600 10150 None 6 -SN BR OVC                          None None None 8 None None None None None None None None 5 None None None None None METAR KDDH 280608Z AUTO 20006KT 6SM -SN BR OVC008 00/M01 A2997 RMK AO2 CIG 006V012 P0000
004 KALB 42.75 -73.80 23 55.48 KPSF 42.43 -73.28 1235802120 2009-02-28 06:22:00 -10 -30 300 7 23 1000 10143 None 6 None SCT                          SCT OVC None 12 17 32 None None None None None None 5 None None None None None METAR KPSF 280622Z AUTO 30007G23KT 270V340 10SM SCT012 SCT017 OVC032 M01/M03 A2995 RMK AO2 SNE12 P0000
004 KALB 42.75 -73.80 23 51.76 KAQW 42.70 -73.17 1235802420 2009-02-28 06:27:00 20 -20 270 16 21 1000 10146 None 6 None FEW                          SCT OVC None 18 24 47 None None None None None None 5 None None None None None METAR KAQW 280627Z AUTO 27016G21KT 10SM FEW018 SCT024 OVC047 02/M02 A2996 RMK AO2 UPE04 P0000
004 KALB 42.75 -73.80 23 55.48 KPSF 42.43 -73.28 1235803200 2009-02-28 06:40:00 -10 -30 300 7 19 1000 10150 None 6 None BKN                          OVC None None 15 34 None None None None None None None 5 None None None None None METAR KPSF 280640Z AUTO 30007G19KT 260V340 10SM BKN015 OVC034 M01/M03 A2997 RMK AO2 SNE12 PRESRR P0000
004 KALB 42.75 -73.80 23 47.13 KDDH 42.88 -73.25 1235803500 2009-02-28 07:00:00 -10 -30 230 7 None 1000 10160 None 6 None OVC                          None None None 10 None None None None None None None None 10 None None None None None METAR KDDH 280645Z AUTO 23007KT 170V270 10SM OVC010 M01/M03 A3000 RMK AO2 SNE14 P0001
004 KALB 42.75 -73.80 23 0.00 KALB 42.75 -73.80 1235803860 2009-02-28 07:00:00 -11 -50 290 14 24 1000 10187 10188 4 None OVC                          None None None 21 None None None None None None None None None None None None None None METAR KALB 280651Z 29014G24KT 10SM OVC021 M01/M05 A3008 RMK AO2 PK WND 29029/0620 PRESRR SLP188 T10111050
004 KALB 42.75 -73.80 23 51.76 KAQW 42.70 -73.17 1235803920 2009-02-28 07:00:00 6 -22 270 17 29 1000 10157 10159 6 None FEW                          SCT OVC None 18 25 49 None None None None None None 5 None None None None None METAR KAQW 280652Z AUTO 27017G29KT 10SM FEW018 SCT025 OVC049 01/M02 A2999 RMK AO2 PK WND 27029/0647 UPE04 PRESRR SLP159 P0000 T00061022
004 KALB 42.75 -73.80 23 66.13 KGFL 43.33 -73.62 1235803980 2009-02-28 07:00:00 6 -39 340 12 19 1000 10163 10169 6 None OVC                          None None None 27 None None None None None None None None None None None None None None METAR KGFL 280653Z AUTO 34012G19KT 10SM OVC027 01/M04 A3001 RMK AO2 SLP169 T00061039
004 KALB 42.75 -73.80 23 47.13 KDDH 42.88 -73.25 1235804040 2009-02-28 07:00:00 -6 -28 0 3 None 1000 10160 10163 6 None OVC                          None None None 10 None None None None None None None None 10 None None None None None METAR KDDH 280654Z AUTO VRB03KT 10SM OVC010 M01/M03 A3000 RMK AO2 SNE14 SLP163 P0001 T10061028
004 KALB 42.75 -73.80 23 55.48 KPSF 42.43 -73.28 1235804040 2009-02-28 07:00:00 -11 -33 0 5 17 1000 10150 10150 6 None OVC                          None None None 13 None None None None None None None None 5 None None None None None METAR KPSF 280654Z AUTO VRB05G17KT 10SM OVC013 M01/M03 A2997 RMK AO2 SNE12 SLP150 P0000 T10111033
004 KALB 42.75 -73.80 00 51.76 KAQW 42.70 -73.17 1235804520 2009-02-28 07:02:00 10 -30 260 19 29 1000 10157 None 6 None BKN                          BKN OVC None 18 25 49 None None None None None None None None None None None None METAR KAQW 280702Z AUTO 26019G29KT 10SM BKN018 BKN025 OVC049 01/M03 A2999 RMK AO2 PK WND 26029/0702
004 KALB 42.75 -73.80 00 66.13 KGFL 43.33 -73.62 1235805180 2009-02-28 07:13:00 0 -40 320 16 23 1000 10167 None 6 None FEW                          OVC None None 27 37 None None None None None None None None None None None None None METAR KGFL 280713Z AUTO 32016G23KT 10SM FEW027 OVC037 00/M04 A3002 RMK AO2
004 KALB 42.75 -73.80 00 0.00 KALB 42.75 -73.80 1235807460 2009-02-28 08:00:00 -28 -67 290 10 17 1000 10197 10197 4 None OVC                          None None None 19 None None None None None None None None None None None None None None METAR KALB 280751Z 29010G17KT 10SM OVC019 M03/M07 A3011 RMK AO2 SLP197 T10281067
004 KALB 42.75 -73.80 00 51.76 KAQW 42.70 -73.17 1235807520 2009-02-28 08:00:00 -6 -28 270 8 18 1000 10163 10167 6 None BKN                          OVC None None 18 25 None None None None None None None None None None None None None METAR KAQW 280752Z AUTO 27008G18KT 10SM BKN018 OVC025 M01/M03 A3001 RMK AO2 PK WND 26029/0702 SLP167 T10061028
004 KALB 42.75 -73.80 00 66.13 KGFL 43.33 -73.62 1235807580 2009-02-28 08:00:00 -17 -67 360 16 None 1000 10180 10186 6 None FEW                          OVC None None 33 44 None None None None None None None None None None None None None METAR KGFL 280753Z AUTO 36016KT 10SM FEW033 OVC044 M02/M07 A3006 RMK AO2 SLP186 T10171067
004 KALB 42.75 -73.80 00 55.48 KPSF 42.43 -73.28 1235807640 2009-02-28 08:00:00 -28 -44 280 14 24 1000 10157 10158 6 None OVC                          None None None 11 None None None None None None None None None None None None None None METAR KPSF 280754Z AUTO 28014G24KT 10SM OVC011 M03/M04 A2999 RMK AO2 SLP158 T10281044
004 KALB 42.75 -73.80 00 47.13 KDDH 42.88 -73.25 1235807640 2009-02-28 08:00:00 -17 -39 250 7 14 1000 10163 10168 6 None OVC                          None None None 12 None None None None None None None None None None None None None None METAR KDDH 280754Z AUTO 25007G14KT 210V300 10SM OVC012 M02/M04 A3001 RMK AO2 SLP168 T10171039
004 KALB 42.75 -73.80 01 47.13 KDDH 42.88 -73.25 1235811000 2009-02-28 09:00:00 -30 -60 270 14 23 1000 10174 None 6 None OVC                          None None None 16 None None None None None None None None None None None None None None METAR KDDH 280850Z AUTO 27014G23KT 10SM OVC016 M03/M06 A3004 RMK AO2
004 KALB 42.75 -73.80 01 0.00 KALB 42.75 -73.80 1235811060 2009-02-28 09:00:00 -39 -83 310 14 26 1000 10204 10205 4 None SCT                          SCT OVC None 21 34 42 None 38 None None None None None None None None None None METAR KALB 280851Z 31014G26KT 10SM SCT021 SCT034 OVC042 M04/M08 A3013 RMK AO2 PK WND 30027/0813 SLP205 T10391083 51038
004 KALB 42.75 -73.80 01 51.76 KAQW 42.70 -73.17 1235811120 2009-02-28 09:00:00 -22 -56 260 10 19 1000 10174 10179 6 None OVC                          None None None 16 None None None 32 None None None None None 5 None None None None METAR KAQW 280852Z AUTO 26010G19KT 10SM OVC016 M02/M06 A3004 RMK AO2 SLP179 60000 T10221056 51032
004 KALB 42.75 -73.80 01 66.13 KGFL 43.33 -73.62 1235811180 2009-02-28 09:00:00 -44 -94 340 16 24 1000 10194 10200 6 None FEW                          OVC None None 37 46 None None 55 None None None None None None None None None None METAR KGFL 280853Z AUTO 34016G24KT 10SM FEW037 OVC046 M04/M09 A3010 RMK AO2 SLP200 T10441094 51055
004 KALB 42.75 -73.80 01 55.48 KPSF 42.43 -73.28 1235811240 2009-02-28 09:00:00 -44 -67 310 17 30 1000 10163 10166 6 None OVC                          None None None 13 None None None 27 None None None None None 5 None None None None METAR KPSF 280854Z AUTO 31017G30KT 280V340 10SM OVC013 M04/M07 A3001 RMK AO2 PK WND 29030/0848 SLP166 60000 T10441067 51027
004 KALB 42.75 -73.80 01 47.13 KDDH 42.88 -73.25 1235811240 2009-02-28 09:00:00 -28 -61 280 11 23 1000 10174 10177 6 None OVC                          None None None 16 None None None 13 None None None None None 10 None None None None METAR KDDH 280854Z AUTO 28011G23KT 10SM OVC016 M03/M06 A3004 RMK AO2 SLP177 60001 T10281061 51013
005 KALB 42.75 -73.80 22 55.48 KPSF 42.43 -73.28 1235797500 2009-02-28 05:05:00 20 10 0 0 None 700 10126 None 6 -RA BKN                          OVC None None 12 27 None None None None None None None 10 None None None None None METAR KPSF 280505Z AUTO 00000KT 7SM -RA BKN012 OVC027 02/01 A2990 RMK AO2 P0001
005 KALB 42.75 -73.80 22 47.13 KDDH 42.88 -73.25 1235799540 2009-02-28 05:39:00 10 -10 240 8 17 200 10140 None 6 -SN BR FEW                          BKN OVC None 8 12 45 None None None None None None 5 None None None None None METAR KDDH 280539Z AUTO 24008G17KT 2SM -SN BR FEW008 BKN012 OVC045 01/M01 A2994 RMK AO2 PK WND 25026/0516 RAE19UPB19E21SNB21 PRESRR P0000
005 KALB 42.75 -73.80 22 47.13 KDDH 42.88 -73.25 1235799900 2009-02-28 06:00:00 10 -10 230 9 None 300 10146 None 6 -SN BR BKN                          BKN OVC None 8 12 45 None None None None None None 5 None None None None None METAR KDDH 280545Z AUTO 23009KT 3SM -SN BR BKN008 BKN012 OVC045 01/M01 A2996 RMK AO2 PK WND 25026/0516 RAE19UPB19E21SNB21 PRESRR P0000
005 KALB 42.75 -73.80 22 0.00 KALB 42.75 -73.80 1235800260 2009-02-28 06:00:00 6 -39 290 16 23 1000 10167 10167 4 None BKN                          BKN None None 23 29 None None 44 94 6 None None None None 5 None None None METAR KALB 280551Z 29016G23KT 10SM BKN023 BKN029 01/M04 A3002 RMK AO2 PK WND 29031/0502 SLP167 60000 T00061039 10094 20006 53044
005 KALB 42.75 -73.80 22 51.76 KAQW 42.70 -73.17 1235800320 2009-02-28 06:00:00 22 0 280 11 15 900 10143 10144 6 UP FEW                          BKN OVC None 17 24 45 None 30 106 22 None None 5 None 100 None None None METAR KAQW 280552Z AUTO 28011G15KT 9SM UP FEW017 BKN024 OVC045 02/00 A2995 RMK AO2 RAE09UPB45 SLP144 P0000 60010 T00220000 10106 20022 53030
005 KALB 42.75 -73.80 22 66.13 KGFL 43.33 -73.62 1235800380 2009-02-28 06:00:00 39 11 260 4 None 1000 10140 10143 6 None SCT                          BKN OVC None 30 38 65 None 47 78 33 None None None None 120 None None None METAR KGFL 280553Z AUTO 26004KT 10SM SCT030 BKN038 OVC065 04/01 A2994 RMK AO2 SLP143 60012 T00390011 10078 20033 53047
005 KALB 42.75 -73.80 22 55.48 KPSF 42.43 -73.28 1235800440 2009-02-28 06:00:00 6 -11 0 6 21 500 10136 10134 6 -SN BR OVC                          None None None 14 None None None 31 83 6 None None 20 None 80 None None None METAR KPSF 280554Z AUTO VRB06G21KT 5SM -SN BR OVC014 01/M01 A2993 RMK AO2 RAE26UPB49E52SNB26E49B52 SLP134 P0002 60008 T00061011 10083 20006 51031
005 KALB 42.75 -73.80 22 47.13 KDDH 42.88 -73.25 1235800440 2009-02-28 05:54:00 0 -11 0 6 None 250 10143 10145 6 -SN BR BKN                          OVC None None 8 19 None None 44 106 0 None None 5 None None None None None SPECI KDDH 280554Z AUTO VRB06KT 2 1/2SM -SN BR BKN008 OVC019 00/M01 A2995 RMK AO2 PK WND 25026/0516 RAE19UPB19E21SNB21 SLP145 P0000 60002 T00001011 10106 20000 53044
005 KALB 42.75 -73.80 23 66.13 KGFL 43.33 -73.62 1235801220 2009-02-28 06:07:00 30 -10 360 14 21 1000 10146 None 6 None SCT                          BKN OVC None 24 28 38 None None None None None None None None None None None None METAR KGFL 280607Z AUTO 36014G21KT 10SM SCT024 BKN028 OVC038 03/M01 A2996 RMK AO2 PRESRR
005 KALB 42.75 -73.80 23 47.13 KDDH 42.88 -73.25 1235801280 2009-02-28 06:08:00 0 -10 200 6 None 600 10150 None 6 -SN BR OVC                          None None None 8 None None None None None None None None 5 None None None None None METAR KDDH 280608Z AUTO 20006KT 6SM -SN BR OVC008 00/M01 A2997 RMK AO2 CIG 006V012 P0000
005 KALB 42.75 -73.80 23 55.48 KPSF 42.43 -73.28 1235802120 2009-02-28 06:22:00 -10 -30 300 7 23 1000 10143 None 6 None SCT                          SCT OVC None 12 17 32 None None None None None None 5 None None None None None METAR KPSF 280622Z AUTO 30007G23KT 270V340 10SM SCT012 SCT017 OVC032 M01/M03 A2995 RMK AO2 SNE12 P0000
005 KALB 42.75 -73.80 23 51.76 KAQW 42.70 -73.17 1235802420 2009-02-28 06:27:00 20 -20 270 16 21 1000 10146 None 6 None FEW                          SCT OVC None 18 24 47 None None None None None None 5 None None None None None METAR KAQW 280627Z AUTO 27016G21KT 10SM FEW018 SCT024 OVC047 02/M02 A2996 RMK AO2 UPE04 P0000
005 KALB 42.75 -73.80 23 55.48 KPSF 42.43 -73.28 1235803200 2009-02-28 06:40:00 -10 -30 300 7 19 1000 10150 None 6 None BKN                          OVC None None 15 34 None None None None None None None 5 None None None None None METAR KPSF 280640Z AUTO 30007G19KT 260V340 10SM BKN015 OVC034 M01/M03 A2997 RMK AO2 SNE12 PRESRR P0000
005 KALB 42.75 -73.80 23 47.13 KDDH 42.88 -73.25 1235803500 2009-02-28 07:00:00 -10 -30 230 7 None 1000 10160 None 6 None OVC                          None None None 10 None None None None None None None None 10 None None None None None METAR KDDH 280645Z AUTO 23007KT 170V270 10SM OVC010 M01/M03 A3000 RMK AO2 SNE14 P0001
005 KALB 42.75 -73.80 23 0.00 KALB 42.75 -73.80 1235803860 2009-02-28 07:00:00 -11 -50 290 14 24 1000 10187 10188 4 None OVC                          None None None 21 None None None None None None None None None None None None None None METAR KALB 280651Z 29014G24KT 10SM OVC021 M01/M05 A3008 RMK AO2 PK WND 29029/0620 PRESRR SLP188 T10111050
005 KALB 42.75 -73.80 23 51.76 KAQW 42.70 -73.17 1235803920 2009-02-28 07:00:00 6 -22 270 17 29 1000 10157 10159 6 None FEW                          SCT OVC None 18 25 49 None None None None None None 5 None None None None None METAR KAQW 280652Z AUTO 27017G29KT 10SM FEW018 SCT025 OVC049 01/M02 A2999 RMK AO2 PK WND 27029/0647 UPE04 PRESRR SLP159 P0000 T00061022
005 KALB 42.75 -73.80 23 66.13 KGFL 43.33 -73.62 1235803980 2009-02-28 07:00:00 6 -39 340 12 19 1000 10163 10169 6 None OVC                          None None None 27 None None None None None None None None None None None None None None METAR KGFL 280653Z AUTO 34012G19KT 10SM OVC027 01/M04 A3001 RMK AO2 SLP169 T00061039
005 KALB 42.75 -73.80 23 47.13 KDDH 42.88 -73.25 1235804040 2009-02-28 07:00:00 -6 -28 0 3 None 1000 10160 10163 6 None OVC                          None None None 10 None None None None None None None None 10 None None None None None METAR KDDH 280654Z AUTO VRB03KT 10SM OVC010 M01/M03 A3000 RMK AO2 SNE14 SLP163 P0001 T10061028
005 KALB 42.75 -73.80 23 55.48 KPSF 42.43 -73.28 1235804040 2009-02-28 07:00:00 -11 -33 0 5 17 1000 10150 10150 6 None OVC                          None None None 13 None None None None None None None None 5 None None None None None METAR KPSF 280654Z AUTO VRB05G17KT 10SM OVC013 M01/M03 A2997 RMK AO2 SNE12 SLP150 P0000 T10111033
005 KALB 42.75 -73.80 00 51.76 KAQW 42.70 -73.17 1235804520 2009-02-28 07:02:00 10 -30 260 19 29 1000 10157 None 6 None BKN                          BKN OVC None 18 25 49 None None None None None None None None None None None None METAR KAQW 280702Z AUTO 26019G29KT 10SM BKN018 BKN025 OVC049 01/M03 A2999 RMK AO2 PK WND 26029/0702
005 KALB 42.75 -73.80 00 66.13 KGFL 43.33 -73.62 1235805180 2009-02-28 07:13:00 0 -40 320 16 23 1000 10167 None 6 None FEW                          OVC None None 27 37 None None None None None None None None None None None None None METAR KGFL 280713Z AUTO 32016G23KT 10SM FEW027 OVC037 00/M04 A3002 RMK AO2
005 KALB 42.75 -73.80 00 0.00 KALB 42.75 -73.80 1235807460 2009-02-28 08:00:00 -28 -67 290 10 17 1000 10197 10197 4 None OVC                          None None None 19 None None None None None None None None None None None None None None METAR KALB 280751Z 29010G17KT 10SM OVC019 M03/M07 A3011 RMK AO2 SLP197 T10281067
005 KALB 42.75 -73.80 00 51.76 KAQW 42.70 -73.17 1235807520 2009-02-28 08:00:00 -6 -28 270 8 18 1000 10163 10167 6 None BKN                          OVC None None 18 25 None None None None None None None None None None None None None METAR KAQW 280752Z AUTO 27008G18KT 10SM BKN018 OVC025 M01/M03 A3001 RMK AO2 PK WND 26029/0702 SLP167 T10061028
005 KALB 42.75 -73.80 00 66.13 KGFL 43.33 -73.62 1235807580 2009-02-28 08:00:00 -17 -67 360 16 None 1000 10180 10186 6 None FEW                          OVC None None 33 44 None None None None None None None None None None None None None METAR KGFL 280753Z AUTO 36016KT 10SM FEW033 OVC044 M02/M07 A3006 RMK AO2 SLP186 T10171067
005 KALB 42.75 -73.80 00 55.48 KPSF 42.43 -73.28 1235807640 2009-02-28 08:00:00 -28 -44 280 14 24 1000 10157 10158 6 None OVC                          None None None 11 None None None None None None None None None None None None None None METAR KPSF 280754Z AUTO 28014G24KT 10SM OVC011 M03/M04 A2999 RMK AO2 SLP158 T10281044
005 KALB 42.75 -73.80 00 47.13 KDDH 42.88 -73.25 1235807640 2009-02-28 08:00:00 -17 -39 250 7 14 1000 10163 10168 6 None OVC                          None None None 12 None None None None None None None None None None None None None None METAR KDDH 280754Z AUTO 25007G14KT 210V300 10SM OVC012 M02/M04 A3001 RMK AO2 SLP168 T10171039
005 KALB 42.75 -73.80 01 47.13 KDDH 42.88 -73.25 1235811000 2009-02-28 09:00:00 -30 -60 270 14 23 1000 10174 None 6 None OVC                          None None None 16 None None None None None None None None None None None None None None METAR KDDH 280850Z AUTO 27014G23KT 10SM OVC016 M03/M06 A3004 RMK AO2
005 KALB 42.75 -73.80 01 0.00 KALB 42.75 -73.80 1235811060 2009-02-28 09:00:00 -39 -83 310 14 26 1000 10204 10205 4 None SCT                          SCT OVC None 21 34 42 None 38 None None None None None None None None None None METAR KALB 280851Z 31014G26KT 10SM SCT021 SCT034 OVC042 M04/M08 A3013 RMK AO2 PK WND 30027/0813 SLP205 T10391083 51038
005 KALB 42.75 -73.80 01 51.76 KAQW 42.70 -73.17 1235811120 2009-02-28 09:00:00 -22 -56 260 10 19 1000 10174 10179 6 None OVC                          None None None 16 None None None 32 None None None None None 5 None None None None METAR KAQW 280852Z AUTO 26010G19KT 10SM OVC016 M02/M06 A3004 RMK AO2 SLP179 60000 T10221056 51032
005 KALB 42.75 -73.80 01 66.13 KGFL 43.33 -73.62 1235811180 2009-02-28 09:00:00 -44 -94 340 16 24 1000 10194 10200 6 None FEW                          OVC None None 37 46 None None 55 None None None None None None None None None None METAR KGFL 280853Z AUTO 34016G24KT 10SM FEW037 OVC046 M04/M09 A3010 RMK AO2 SLP200 T10441094 51055
005 KALB 42.75 -73.80 01 55.48 KPSF 42.43 -73.28 1235811240 2009-02-28 09:00:00 -44 -67 310 17 30 1000 10163 10166 6 None OVC                          None None None 13 None None None 27 None None None None None 5 None None None None METAR KPSF 280854Z AUTO 31017G30KT 280V340 10SM OVC013 M04/M07 A3001 RMK AO2 PK WND 29030/0848 SLP166 60000 T10441067 51027
005 KALB 42.75 -73.80 01 47.13 KDDH 42.88 -73.25 1235811240 2009-02-28 09:00:00 -28 -61 280 11 23 1000 10174 10177 6 None OVC                          None None None 16 None None None 13 None None None None None 10 None None None None METAR KDDH 280854Z AUTO 28011G23KT 10SM OVC016 M03/M06 A3004 RMK AO2 SLP177 60001 T10281061 51013
006 KOKX 40.87 -72.87 22 73.15 KHPN 41.07 -73.70 1235797320 2009-02-28 05:02:00 80 70 0 0 None 175 10123 None 4 BR OVC                          None None None 55 None None None None None None None None 5 None None None None None METAR KHPN 280502Z 00000KT 1 3/4SM BR OVC055 08/07 A2989 RMK AO2 RAE0459 P0000
006 KOKX 40.87 -72.87 22 48.84 KFRG 40.73 -73.42 1235797320 2009-02-28 05:02:00 80 70 240 11 None 800 10136 None 4 None BKN                          OVC None None 27 35 None None None None None None None None None None None None None METAR KFRG 280502Z 24011KT 8SM BKN027 OVC035 08/07 A2993 RMK AO2
006 KOKX 40.87 -72.87 22 97.38 KHFD 41.73 -72.65 1235797320 2009-02-28 05:02:00 110 90 200 6 None 1000 10119 None 4 None SCT                          SCT OVC None 14 20 50 None None None None None None None None None None None None METAR KHFD 280502Z 20006KT 10SM SCT014 SCT020 OVC050 11/09 A2988 RMK AO2
006 KOKX 40.87 -72.87 22 48.84 KFRG 40.73 -73.42 1235798100 2009-02-28 05:15:00 80 70 230 11 None 800 10136 None 4 None SCT                          BKN OVC None 27 39 95 None None None None None None None None None None None None METAR KFRG 280515Z 23011KT 8SM SCT027 BKN039 OVC095 08/07 A2993 RMK AO2
006 KOKX 40.87 -72.87 22 70.18 KOXC 41.47 -73.13 1235798100 2009-02-28 05:15:00 80 80 220 5 None 400 10130 None 4 None SCT                          OVC None None 4 50 None None None None None None None None None None None None None METAR KOXC 280515Z 22005KT 4SM SCT004 OVC050 08/08 A2991 RMK AO1
006 KOKX 40.87 -72.87 22 64.63 KSNC 41.38 -72.50 1235798100 2009-02-28 05:15:00 80 None 220 9 17 300 10126 None 6 RA OVC                          None None None 4 None None None None None None None None None None None None None None METAR KSNC 280515Z AUTO 22009G17KT 010V010 3SM RA OVC004 08/ A2990 RMK A02 P-128
006 KOKX 40.87 -72.87 22 97.38 KHFD 41.73 -72.65 1235798220 2009-02-28 05:17:00 110 90 210 5 None 1000 10119 None 4 None BKN                          OVC None None 16 50 None None None None None None None None None None None None None METAR KHFD 280517Z 21005KT 10SM BKN016 OVC050 11/09 A2988 RMK AO2
006 KOKX 40.87 -72.87 22 85.66 KGON 41.33 -72.05 1235798340 2009-02-28 05:19:00 80 80 220 16 25 500 10126 None 6 -RA BR BKN                          OVC None None 11 43 None None None None None None None 10 None None None None None SPECI KGON 280519Z AUTO 22016G25KT 5SM -RA BR BKN011 OVC043 08/08 A2990 RMK AO2 P0001
006 KOKX 40.87 -72.87 22 20.86 KISP 40.80 -73.10 1235798820 2009-02-28 05:27:00 80 60 230 11 18 900 10133 None 4 None SCT                          BKN OVC None 9 26 32 None None None None None None 5 None None None None None METAR KISP 280527Z 23011G18KT 9SM SCT009 BKN026 OVC032 08/06 A2992 RMK AO2 RAB08E21 P0000
006 KOKX 40.87 -72.87 22 97.38 KHFD 41.73 -72.65 1235798940 2009-02-28 05:29:00 110 90 200 8 None 900 10119 None 4 None SCT                          OVC None None 16 60 None None None None None None None None None None None None None METAR KHFD 280529Z 20008KT 9SM SCT016 OVC060 11/09 A2988 RMK AO2
006 KOKX 40.87 -72.87 22 72.36 KMMK 41.52 -72.83 1235798940 2009-02-28 05:29:00 90 80 190 5 None 800 10123 None 6 None SCT                          SCT OVC None 13 50 60 None None None None None None 5 None None None None None METAR KMMK 280529Z AUTO 19005KT 8SM SCT013 SCT050 OVC060 09/08 A2989 RMK AO2 RAE03 P0000
006 KOKX 40.87 -72.87 22 64.63 KSNC 41.38 -72.50 1235799300 2009-02-28 05:35:00 80 None 240 10 16 300 10130 None 6 -DZ OVC                          None None None 3 None None None None None None None None None None None None None None METAR KSNC 280535Z AUTO 24010G16KT 360V010 3SM -DZ OVC003 08/ A2991 RMK A02 P-128
006 KOKX 40.87 -72.87 22 70.18 KOXC 41.47 -73.13 1235799300 2009-02-28 05:35:00 80 80 220 4 None 300 10126 None 4 None FEW                          SCT OVC None 60 70 85 None None None None None None None None None None None None METAR KOXC 280535Z 22004KT 3SM FEW060 SCT070 OVC085 08/08 A2990 RMK AO1
006 KOKX 40.87 -72.87 22 85.66 KGON 41.33 -72.05 1235799840 2009-02-28 05:44:00 80 80 250 10 17 300 10133 None 6 RA BR BKN                          OVC None None 9 35 None None None None None None None 60 None None None None None METAR KGON 280544Z AUTO 25010G17KT 3SM RA BR BKN009 OVC035 08/08 A2992 RMK AO2 CIG 006V013 P0006
006 KOKX 40.87 -72.87 22 85.66 KGON 41.33 -72.05 1235800020 2009-02-28 05:47:00 80 80 250 10 17 250 10133 None 6 +RA BR SCT                          OVC None None 7 11 None None None None None None None 70 None None None None None SPECI KGON 280547Z AUTO 25010G17KT 2 1/2SM +RA BR SCT007 OVC011 08/08 A2992 RMK AO2 P0007
006 KOKX 40.87 -72.87 22 80.38 KJFK 40.63 -73.77 1235800260 2009-02-28 05:51:00 72 61 170 9 None 1000 10140 10138 12 None BKN                          None None None 70 None None None 9 83 67 None None None None None None None None SPECI KJFK 280551Z 17009KT 10SM BKN070 07/06 A2994 RMK AO2 DZE0452 SLP138 60001 T00720061 10083 20067 53009 $
006 KOKX 40.87 -72.87 22 99.22 KTEB 40.87 -74.05 1235800260 2009-02-28 06:00:00 94 83 230 3 None 1000 10130 10127 4 -DZ SCT                          OVC None None 60 90 None None 12 111 89 None None 5 None 40 None None None METAR KTEB 280551Z 23003KT 10SM -DZ SCT060 OVC090 09/08 A2991 RMK AO2 SLP127 P0000 60004 T00940083 10111 20089 51012
006 KOKX 40.87 -72.87 22 85.57 KLGA 40.78 -73.88 1235800260 2009-02-28 06:00:00 100 72 0 0 None 1000 10130 10129 4 None BKN                          None None None 80 None None None 8 111 89 None None None None 30 None None None METAR KLGA 280551Z 00000KT 10SM BKN080 10/07 A2991 RMK AO2 SLP129 60003 T01000072 10111 20089 53008
006 KOKX 40.87 -72.87 22 93.10 KNYC 40.78 -73.97 1235800260 2009-02-28 06:00:00 122 83 250 4 None 1000 10140 10129 38 None BKN                          OVC None None 80 95 None None 10 133 100 None None None None 10 None None None METAR KNYC 280551Z AUTO 25004KT 10SM BKN080 OVC095 12/08 A2994 RMK AO2 SLP129 60001 T01220083 10133 20100 53010 TSNO
006 KOKX 40.87 -72.87 22 39.86 KBDR 41.17 -73.13 1235800320 2009-02-28 06:00:00 61 61 230 7 None 700 10126 10126 4 None BKN                          OVC None None 60 85 None None 0 94 61 None None 5 None 130 None None None METAR KBDR 280552Z 23007KT 7SM BKN060 OVC085 06/06 A2990 RMK AO2 RAB0453E02 SLP126 P0000 60013 T00610061 10094 20061 53000
006 KOKX 40.87 -72.87 22 48.84 KFRG 40.73 -73.42 1235800380 2009-02-28 06:00:00 67 61 210 7 None 700 10136 10134 4 None SCT                          BKN OVC None 55 70 85 None 6 94 67 None None None None 70 None None None METAR KFRG 280553Z 21007KT 7SM SCT055 BKN070 OVC085 07/06 A2993 RMK AO2 SLP134 60007 T00670061 10094 20067 50006
006 KOKX 40.87 -72.87 22 97.38 KHFD 41.73 -72.65 1235800380 2009-02-28 06:00:00 100 89 170 7 None 900 10116 10115 4 None OVC                          None None None 70 None None None -6 111 100 None None None None 190 None None None METAR KHFD 280553Z 17007KT 9SM OVC070 10/09 A2987 RMK AO2 SLP115 60019 T01000089 10111 20100 56006
006 KOKX 40.87 -72.87 22 5.56 KHWV 40.82 -72.87 1235800380 2009-02-28 06:00:00 80 60 240 10 None 700 10140 None 6 None SCT                          BKN OVC None 6 31 60 None None None None None None 30 None None None None None METAR KHWV 280553Z AUTO 24010KT 7SM SCT006 BKN031 OVC060 08/06 A2994 RMK AO2 RAB10E45 P0003
006 KOKX 40.87 -72.87 22 72.36 KMMK 41.52 -72.83 1235800380 2009-02-28 06:00:00 89 78 170 5 None 500 10123 10120 6 BR OVC                          None None None 70 None None None -4 100 89 None None 5 None 200 None None None METAR KMMK 280553Z AUTO 17005KT 5SM BR OVC070 09/08 A2989 RMK AO2 RAE03 SLP120 P0000 60020 T00890078 10100 20089 56004
006 KOKX 40.87 -72.87 22 21.14 KFOK 40.85 -72.62 1235800380 2009-02-28 06:00:00 83 61 240 14 22 500 10143 10141 38 -RA BR OVC                          None None None 6 None None None -1 100 83 None None 40 None 210 None None None METAR KFOK 280553Z AUTO 24014G22KT 5SM -RA BR OVC006 08/06 A2995 RMK AO2 RAB02 SLP141 P0004 60021 T00830061 10100 20083 55001 TSNO
006 KOKX 40.87 -72.87 22 44.48 KHVN 41.27 -72.87 1235800380 2009-02-28 06:00:00 78 67 210 7 None 800 10126 10125 6 None FEW                          OVC None None 65 80 None None -5 100 61 None None 5 None 130 None None None METAR KHVN 280553Z AUTO 21007KT 8SM FEW065 OVC080 08/07 A2990 RMK AO2 RAE0459 SLP125 P0000 60013 T00780067 10100 20061 56005
006 KOKX 40.87 -72.87 22 75.51 KDXR 41.37 -73.48 1235800380 2009-02-28 06:00:00 89 83 250 5 None 1000 10126 10125 6 None SCT                          OVC None None 70 110 None None 5 94 83 None None 10 None 90 None None None METAR KDXR 280553Z AUTO 25005KT 10SM SCT070 OVC110 09/08 A2990 RMK AO2 RAE44 SLP125 P0001 60009 T00890083 10094 20083 53005
006 KOKX 40.87 -72.87 22 73.15 KHPN 41.07 -73.70 1235800440 2009-02-28 06:00:00 80 70 0 0 None 300 10126 None 4 BR BKN                          None None None 50 None None None None None None None None 5 None None None None None METAR KHPN 280554Z 00000KT 3SM BR BKN050 08/07 A2990 RMK AO2 RAE26 P0000
006 KOKX 40.87 -72.87 22 82.80 KMTP 41.07 -71.92 1235800440 2009-02-28 06:00:00 89 72 220 14 24 None 10133 10133 166 None None                          None None None None None None None -15 94 83 None None 40 None 260 None None None METAR KMTP 280554Z AUTO 22014G24KT 09/07 A2992 RMK AO2 SLP133 P0004 60026 T00890072 10094 20083 56015 PWINO TSNO
006 KOKX 40.87 -72.87 22 64.63 KSNC 41.38 -72.50 1235800500 2009-02-28 06:00:00 70 None 230 6 14 500 10126 None 6 HZ OVC                          None None None 4 None None None None None None None None None None None None None None METAR KSNC 280555Z AUTO 23006G14KT 5SM HZ OVC004 07/ A2990 RMK A02 P-128
006 KOKX 40.87 -72.87 22 70.18 KOXC 41.47 -73.13 1235800500 2009-02-28 06:00:00 80 70 200 4 None 300 10126 None 4 None BKN                          OVC None None 70 85 None None -3 None None None None None None None None None None METAR KOXC 280555Z 20004KT 3SM BKN070 OVC085 08/07 A2990 RMK AO1 57003
006 KOKX 40.87 -72.87 22 85.66 KGON 41.33 -72.05 1235800560 2009-02-28 05:56:00 83 83 230 17 23 300 10130 10129 6 RA BR BKN                          OVC None None 6 11 None None -4 89 78 None None 100 None None None None None SPECI KGON 280556Z AUTO 23017G23KT 3SM RA BR BKN006 OVC011 08/08 A2991 RMK AO2 CIG 003V009 SLP129 P0010 60032 T00830083 10089 20078 55004
006 KOKX 40.87 -72.87 22 20.86 KISP 40.80 -73.10 1235800560 2009-02-28 05:56:00 78 56 230 7 None 800 10130 10128 4 None SCT                          BKN None None 28 70 None None -1 94 78 None None 5 None None None None None SPECI KISP 280556Z 23007KT 8SM SCT028 BKN070 08/06 A2991 RMK AO2 RAB08E21B39E40 SLP128 P0000 60021 T00780056 10094 20078 58001
006 KOKX 40.87 -72.87 22 73.15 KHPN 41.07 -73.70 1235800560 2009-02-28 05:56:00 83 72 260 3 None 400 10126 10125 4 BR BKN                          None None None 50 None None None 6 89 72 None None 5 None None None None None SPECI KHPN 280556Z 26003KT 4SM BR BKN050 08/07 A2990 RMK AO2 RAE26 SLP125 P0000 60002 T00830072 10089 20072 53006
006 KOKX 40.87 -72.87 22 5.56 KHWV 40.82 -72.87 1235800560 2009-02-28 05:56:00 83 56 230 6 15 700 10140 10138 6 None SCT                          SCT OVC None 6 26 60 None -1 100 83 None None 30 None None None None None SPECI KHWV 280556Z AUTO 23006G15KT 7SM SCT006 SCT026 OVC060 08/06 A2994 RMK AO2 RAB10E45 SLP138 P0003 60022 T00830056 10100 20083 55001
006 KOKX 40.87 -72.87 23 70.18 KOXC 41.47 -73.13 1235801700 2009-02-28 06:15:00 80 70 230 4 None 175 10130 None 4 None BKN                          OVC None None 70 95 None None None None None None None None None None None None None METAR KOXC 280615Z 23004KT 1 3/4SM BKN070 OVC095 08/07 A2991 RMK AO1
006 KOKX 40.87 -72.87 23 64.63 KSNC 41.38 -72.50 1235801700 2009-02-28 06:15:00 70 None 250 8 None 500 10130 None 6 HZ OVC                          None None None 4 None None None None None None None None None None None None None None METAR KSNC 280615Z AUTO 25008KT 5SM HZ OVC004 07/ A2991 RMK A02 P-128
006 KOKX 40.87 -72.87 23 21.14 KFOK 40.85 -72.62 1235802240 2009-02-28 06:24:00 80 60 230 11 19 800 10140 None 38 None SCT                          OVC None None 6 60 None None None None None None None 5 None None None None None METAR KFOK 280624Z AUTO 23011G19KT 8SM SCT006 OVC060 08/06 A2994 RMK AO2 RAE07 P0000 TSNO
006 KOKX 40.87 -72.87 23 64.63 KSNC 41.38 -72.50 1235802900 2009-02-28 06:35:00 70 None 230 7 None 500 10126 None 6 HZ OVC                          None None None 4 None None None None None None None None None None None None None None METAR KSNC 280635Z AUTO 23007KT 5SM HZ OVC004 07/ A2990 RMK A02 P-128
006 KOKX 40.87 -72.87 23 70.18 KOXC 41.47 -73.13 1235802900 2009-02-28 06:35:00 80 70 250 4 None 125 10133 None 4 None SCT                          SCT OVC None 2 80 95 None None None None None None None None None None None None METAR KOXC 280635Z 25004KT 1 1/4SM SCT002 SCT080 OVC095 08/07 A2992 RMK AO1
006 KOKX 40.87 -72.87 23 85.66 KGON 41.33 -72.05 1235803140 2009-02-28 06:39:00 80 80 240 9 None 600 10130 None 6 BR OVC                          None None None 4 None None None None None None None None 5 None None None None None METAR KGON 280639Z AUTO 24009KT 6SM BR OVC004 08/08 A2991 RMK AO2 RAE25 P0000
006 KOKX 40.87 -72.87 23 99.22 KTEB 40.87 -74.05 1235803860 2009-02-28 07:00:00 106 61 270 9 None 1000 10143 10141 4 None BKN                          OVC None None 45 60 None None None None None None None 5 None None None None None METAR KTEB 280651Z 27009KT 10SM BKN045 OVC060 11/06 A2995 RMK AO2 DZE21 SLP141 P0000 T01060061
006 KOKX 40.87 -72.87 23 80.38 KJFK 40.63 -73.77 1235803860 2009-02-28 07:00:00 78 67 250 5 None 1000 10146 10146 12 None SCT                          SCT BKN None 30 55 70 None None None None None None None None None None None None METAR KJFK 280651Z 25005KT 10SM SCT030 SCT055 BKN070 08/07 A2996 RMK AO2 SLP146 T00780067 $
006 KOKX 40.87 -72.87 23 93.10 KNYC 40.78 -73.97 1235803860 2009-02-28 07:00:00 117 61 0 5 18 1000 10153 10142 38 None FEW                          BKN OVC None 29 38 45 None None None None None None None None None None None None METAR KNYC 280651Z AUTO VRB05G18KT 10SM FEW029 BKN038 OVC045 12/06 A2998 RMK AO2 SLP142 T01170061 TSNO
006 KOKX 40.87 -72.87 23 85.57 KLGA 40.78 -73.88 1235803860 2009-02-28 07:00:00 117 67 270 14 23 1000 10143 10140 4 None FEW                          BKN OVC None 27 49 60 None None None None None None None None None None None None METAR KLGA 280651Z 27014G23KT 10SM FEW027 BKN049 OVC060 12/07 A2995 RMK AO2 CIG 038 R22 SW SLP140 T01170067
006 KOKX 40.87 -72.87 23 39.86 KBDR 41.17 -73.13 1235803920 2009-02-28 07:00:00 61 61 250 7 None 600 10133 10131 4 BR OVC                          None None None 90 None None None None None None None None None None None None None None METAR KBDR 280652Z 25007KT 200V270 6SM BR OVC090 06/06 A2992 RMK AO2 SLP131 T00610061
006 KOKX 40.87 -72.87 23 48.84 KFRG 40.73 -73.42 1235803980 2009-02-28 07:00:00 72 67 240 6 None 700 10143 10140 6 None BKN                          None None None 90 None None None None None None None None None None None None None None METAR KFRG 280653Z AUTO 24006KT 7SM BKN090 07/07 A2995 RMK AO2 SLP140 T00720067
006 KOKX 40.87 -72.87 23 72.36 KMMK 41.52 -72.83 1235803980 2009-02-28 07:00:00 83 72 170 5 None 400 10126 10124 6 BR FEW                          SCT OVC None 70 95 120 None None None None None None None None None None None None METAR KMMK 280653Z AUTO 17005KT 4SM BR FEW070 SCT095 OVC120 08/07 A2990 RMK AO2 SLP124 T00830072
006 KOKX 40.87 -72.87 23 97.38 KHFD 41.73 -72.65 1235803980 2009-02-28 07:00:00 94 83 0 0 None 800 10123 10123 4 None BKN                          OVC None None 33 80 None None None None None None None 5 None None None None None METAR KHFD 280653Z 00000KT 8SM BKN033 OVC080 09/08 A2989 RMK AO2 RAB26E36 SLP123 P0000 T00940083
006 KOKX 40.87 -72.87 23 44.48 KHVN 41.27 -72.87 1235803980 2009-02-28 07:00:00 78 67 220 7 None 700 10130 10127 6 None OVC                          None None None 80 None None None None None None None None None None None None None None METAR KHVN 280653Z AUTO 22007KT 7SM OVC080 08/07 A2991 RMK AO2 SLP127 T00780067
006 KOKX 40.87 -72.87 23 21.14 KFOK 40.85 -72.62 1235803980 2009-02-28 07:00:00 72 56 240 13 18 700 10143 10141 38 None OVC                          None None None 70 None None None None None None None None 5 None None None None None METAR KFOK 280653Z AUTO 24013G18KT 7SM OVC070 07/06 A2995 RMK AO2 RAE07 SLP141 P0000 T00720056 TSNO
006 KOKX 40.87 -72.87 23 75.51 KDXR 41.37 -73.48 1235803980 2009-02-28 07:00:00 89 83 250 7 None 1000 10133 10133 6 None SCT                          BKN OVC None 24 33 90 None None None None None None None None None None None None METAR KDXR 280653Z AUTO 25007KT 10SM SCT024 BKN033 OVC090 09/08 A2992 RMK AO2 SLP133 T00890083
006 KOKX 40.87 -72.87 23 82.80 KMTP 41.07 -71.92 1235804040 2009-02-28 07:00:00 83 67 240 13 22 None 10136 10134 166 None None                          None None None None None None None None None None None None 80 None None None None None METAR KMTP 280654Z AUTO 24013G22KT 08/07 A2993 RMK AO2 SLP134 P0008 T00830067 PWINO TSNO
006 KOKX 40.87 -72.87 23 70.18 KOXC 41.47 -73.13 1235804100 2009-02-28 07:00:00 80 70 260 5 None 150 10133 None 4 None SCT                          BKN OVC None 80 95 110 None None None None None None None None None None None None METAR KOXC 280655Z 26005KT 1 1/2SM SCT080 BKN095 OVC110 08/07 A2992 RMK AO1
006 KOKX 40.87 -72.87 23 64.63 KSNC 41.38 -72.50 1235804100 2009-02-28 07:00:00 70 None 240 9 None 500 10126 None 6 HZ OVC                          None None None 4 None None None None None None None None None None None None None None METAR KSNC 280655Z AUTO 24009KT 5SM HZ OVC004 07/ A2990 RMK A02 P-128
006 KOKX 40.87 -72.87 23 5.56 KHWV 40.82 -72.87 1235804160 2009-02-28 07:00:00 78 50 240 8 None 700 10140 10139 6 None BKN                          OVC None None 85 100 None None None None None None None None None None None None None METAR KHWV 280656Z AUTO 24008KT 7SM BKN085 OVC100 08/05 A2994 RMK AO2 SLP139 T00780050
006 KOKX 40.87 -72.87 23 85.66 KGON 41.33 -72.05 1235804160 2009-02-28 07:00:00 83 72 230 7 None 700 10130 10127 6 None OVC                          None None None 4 None None None None None None None None 5 None None None None None METAR KGON 280656Z AUTO 23007KT 7SM OVC004 08/07 A2991 RMK AO2 RAE25 SLP127 P0000 T00830072
006 KOKX 40.87 -72.87 23 20.86 KISP 40.80 -73.10 1235804160 2009-02-28 07:00:00 72 50 230 8 None 700 10136 10136 5 None SCT                          BKN None None 75 95 None None None None None None None None None None None None None METAR KISP 280656Z COR 23008KT 7SM SCT075 BKN095 07/05 A2993 RMK AO2 SLP136 T00720050
006 KOKX 40.87 -72.87 23 73.15 KHPN 41.07 -73.70 1235804160 2009-02-28 07:00:00 100 67 260 8 None 1000 10133 10133 4 None BKN                          None None None 60 None None None None None None None None None None None None None None METAR KHPN 280656Z 26008KT 10SM BKN060 10/07 A2992 RMK AO2 SLP133 T01000067
006 KOKX 40.87 -72.87 00 80.38 KJFK 40.63 -73.77 1235805060 2009-02-28 07:11:00 100 80 280 10 None 1000 10150 None 12 None FEW                          BKN BKN None 19 25 55 None None None None None None None None None None None None SPECI KJFK 280711Z 28010KT 10SM FEW019 BKN025 BKN055 10/08 A2997 RMK AO2 BKN025 V FEW $
006 KOKX 40.87 -72.87 00 97.38 KHFD 41.73 -72.65 1235805180 2009-02-28 07:13:00 90 70 340 13 16 800 10133 None 4 None BKN                          OVC None None 13 32 None None None None None None None None None None None None None METAR KHFD 280713Z 34013G16KT 8SM BKN013 OVC032 09/07 A2992 RMK AO2
006 KOKX 40.87 -72.87 00 70.18 KOXC 41.47 -73.13 1235805300 2009-02-28 07:15:00 80 70 260 6 None 700 10136 None 4 None SCT                          BKN OVC None 48 95 120 None None None None None None None None None None None None METAR KOXC 280715Z 26006KT 7SM SCT048 BKN095 OVC120 08/07 A2993 RMK AO1
006 KOKX 40.87 -72.87 00 64.63 KSNC 41.38 -72.50 1235805300 2009-02-28 07:15:00 70 None 260 5 None 400 10126 None 6 HZ OVC                          None None None 4 None None None None None None None None None None None None None None METAR KSNC 280715Z AUTO 26005KT 4SM HZ OVC004 07/ A2990 RMK A02 P-128
006 KOKX 40.87 -72.87 00 72.36 KMMK 41.52 -72.83 1235805900 2009-02-28 07:25:00 70 70 0 0 None 175 10130 None 6 BR OVC                          None None None 95 None None None None None None None None None None None None None None METAR KMMK 280725Z AUTO 00000KT 1 3/4SM BR OVC095 07/07 A2991 RMK AO2
006 KOKX 40.87 -72.87 00 99.22 KTEB 40.87 -74.05 1235806020 2009-02-28 07:27:00 80 40 340 10 None 1000 10150 None 4 None SCT                          BKN OVC None 29 36 55 None None None None None None None None None None None None SPECI KTEB 280727Z 34010KT 10SM SCT029 BKN036 OVC055 08/04 A2997 RMK AO2 WSHFT 0707
006 KOKX 40.87 -72.87 00 72.36 KMMK 41.52 -72.83 1235806440 2009-02-28 07:34:00 80 70 320 14 17 300 10136 None 6 -RA BR FEW                          SCT OVC None 13 21 95 None None None None None None 5 None None None None None METAR KMMK 280734Z AUTO 32014G17KT 3SM -RA BR FEW013 SCT021 OVC095 08/07 A2993 RMK AO2 RAB31 PRESRR P0000
006 KOKX 40.87 -72.87 00 64.63 KSNC 41.38 -72.50 1235806500 2009-02-28 07:35:00 70 None 240 6 None 400 10130 None 6 HZ OVC                          None None None 3 None None None None None None None None None None None None None None METAR KSNC 280735Z AUTO 24006KT 010V010 4SM HZ OVC003 07/ A2991 RMK A02 P-128
006 KOKX 40.87 -72.87 00 70.18 KOXC 41.47 -73.13 1235806500 2009-02-28 07:35:00 60 30 360 12 20 1000 10146 None 4 None BKN                          BKN OVC None 9 35 48 None None None None None None None None None None None None METAR KOXC 280735Z 36012G20KT 10SM BKN009 BKN035 OVC048 06/03 A2996 RMK AO1
006 KOKX 40.87 -72.87 00 75.51 KDXR 41.37 -73.48 1235806740 2009-02-28 07:39:00 70 60 320 11 17 1000 10150 None 6 None SCT                          BKN OVC None 13 22 50 None None None None None None None None None None None None SPECI KDXR 280739Z AUTO 32011G17KT 10SM SCT013 BKN022 OVC050 07/06 A2997 RMK AO2 PRESRR
006 KOKX 40.87 -72.87 00 97.38 KHFD 41.73 -72.65 1235806800 2009-02-28 07:40:00 70 30 340 9 14 1000 10143 None 4 None SCT                          OVC None None 15 24 None None None None None None None None None None None None None SPECI KHFD 280740Z 34009G14KT 10SM SCT015 OVC024 07/03 A2995 RMK AO2
006 KOKX 40.87 -72.87 00 72.36 KMMK 41.52 -72.83 1235806800 2009-02-28 07:40:00 80 40 330 11 20 800 10140 None 6 -RA BKN                          BKN OVC None 13 21 95 None None None None None None 5 None None None None None SPECI KMMK 280740Z AUTO 33011G20KT 8SM -RA BKN013 BKN021 OVC095 08/04 A2994 RMK AO2 RAB31 P0000
006 KOKX 40.87 -72.87 00 75.51 KDXR 41.37 -73.48 1235807160 2009-02-28 08:00:00 60 40 340 10 None 1000 10150 None 6 None BKN                          BKN OVC None 13 22 55 None None None None None None None None None None None None METAR KDXR 280746Z AUTO 34010KT 310V020 10SM BKN013 BKN022 OVC055 06/04 A2997 RMK AO2
006 KOKX 40.87 -72.87 00 20.86 KISP 40.80 -73.10 1235807340 2009-02-28 08:00:00 70 50 270 3 None 1000 10136 None 4 None SCT                          BKN OVC None 29 36 80 None None None None None None None None None None None None METAR KISP 280749Z 27003KT 10SM SCT029 BKN036 OVC080 07/05 A2993 RMK AO2
006 KOKX 40.87 -72.87 00 80.38 KJFK 40.63 -73.77 1235807460 2009-02-28 08:00:00 111 56 280 12 None 1000 10150 10147 12 -RA FEW                          SCT BKN None 25 35 90 None None None None None None 5 None None None None None METAR KJFK 280751Z 28012KT 10SM -RA FEW025 SCT035 BKN090 11/06 A2997 RMK AO2 RAB49 SLP147 FEW025 V BKN P0000 T01110056 $
006 KOKX 40.87 -72.87 00 99.22 KTEB 40.87 -74.05 1235807460 2009-02-28 08:00:00 61 11 350 11 21 1000 10153 10153 4 None FEW                          None None None 36 None None None None None None None None None None None None None None METAR KTEB 280751Z 35011G21KT 10SM FEW036 06/01 A2998 RMK AO2 WSHFT 0707 SLP153 T00610011
006 KOKX 40.87 -72.87 00 93.10 KNYC 40.78 -73.97 1235807460 2009-02-28 08:00:00 78 28 310 7 18 1000 10163 10152 38 None FEW                          SCT BKN None 26 33 55 None None None None None None None None None None None None METAR KNYC 280751Z AUTO 31007G18KT 170V040 10SM FEW026 SCT033 BKN055 08/03 A3001 RMK AO2 PRESRR SLP152 T00780028 TSNO
006 KOKX 40.87 -72.87 00 85.57 KLGA 40.78 -73.88 1235807460 2009-02-28 08:00:00 78 28 320 21 None 1000 10150 10148 4 None FEW                          SCT SCT None 25 32 55 None None None None None None None None None None None None METAR KLGA 280751Z 32021KT 10SM FEW025 SCT032 SCT055 08/03 A2997 RMK AO2 PK WND 31028/0737 PRESRR SLP148 T00780028
006 KOKX 40.87 -72.87 00 39.86 KBDR 41.17 -73.13 1235807520 2009-02-28 08:00:00 67 67 290 5 None 600 10133 10133 4 BR SCT                          None None None 48 None None None None None None None None None None None None None None METAR KBDR 280752Z 29005KT 6SM BR SCT048 07/07 A2992 RMK AO2 SLP133 T00670067
006 KOKX 40.87 -72.87 00 21.14 KFOK 40.85 -72.62 1235807580 2009-02-28 08:00:00 72 56 250 7 None 700 10140 10140 38 None FEW                          BKN None None 70 100 None None None None None None None None None None None None None METAR KFOK 280753Z AUTO 25007KT 7SM FEW070 BKN100 07/06 A2994 RMK AO2 SLP140 T00720056 TSNO
006 KOKX 40.87 -72.87 00 75.51 KDXR 41.37 -73.48 1235807580 2009-02-28 08:00:00 50 39 330 8 None 1000 10153 10151 6 None BKN                          OVC None None 13 20 None None None None None None None None None None None None None METAR KDXR 280753Z AUTO 33008KT 10SM BKN013 OVC020 05/04 A2998 RMK AO2 SLP151 T00500039
006 KOKX 40.87 -72.87 00 44.48 KHVN 41.27 -72.87 1235807580 2009-02-28 08:00:00 72 61 0 3 None 700 10133 10132 6 None BKN                          OVC None None 60 90 None None None None None None None None None None None None None METAR KHVN 280753Z AUTO VRB03KT 7SM BKN060 OVC090 07/06 A2992 RMK AO2 SLP132 T00720061
006 KOKX 40.87 -72.87 00 48.84 KFRG 40.73 -73.42 1235807580 2009-02-28 08:00:00 72 67 240 3 None 600 10140 10140 6 BR OVC                          None None None 42 None None None None None None None None None None None None None None METAR KFRG 280753Z AUTO 24003KT 6SM BR OVC042 07/07 A2994 RMK AO2 SLP140 T00720067
006 KOKX 40.87 -72.87 00 72.36 KMMK 41.52 -72.83 1235807580 2009-02-28 08:00:00 67 39 310 15 None 1000 10140 10140 6 None OVC                          None None None 15 None None None None None None None None 5 None None None None None METAR KMMK 280753Z AUTO 31015KT 10SM OVC015 07/04 A2994 RMK AO2 RAB31E45 SLP140 P0000 T00670039
006 KOKX 40.87 -72.87 00 97.38 KHFD 41.73 -72.65 1235807580 2009-02-28 08:00:00 61 22 330 8 None 1000 10146 10145 4 None FEW                          OVC None None 15 24 None None None None None None None None None None None None None METAR KHFD 280753Z 33008KT 10SM FEW015 OVC024 06/02 A2996 RMK AO2 SLP145 T00610022
006 KOKX 40.87 -72.87 00 82.80 KMTP 41.07 -71.92 1235807640 2009-02-28 08:00:00 78 61 240 10 19 None 10136 10134 166 None None                          None None None None None None None None None None None None None None None None None None METAR KMTP 280754Z AUTO 24010G19KT 08/06 A2993 RMK AO2 SLP134 T00780061 PWINO TSNO
006 KOKX 40.87 -72.87 00 64.63 KSNC 41.38 -72.50 1235807700 2009-02-28 08:00:00 70 None 270 5 None 500 10130 None 6 HZ BKN                          OVC None None 4 90 None None None None None None None None None None None None None METAR KSNC 280755Z AUTO 27005KT 5SM HZ BKN004 OVC090 07/ A2991 RMK A02 P-128
006 KOKX 40.87 -72.87 00 70.18 KOXC 41.47 -73.13 1235807700 2009-02-28 08:00:00 40 20 350 15 19 1000 10150 None 4 None OVC                          None None None 11 None None None None None None None None None None None None None None METAR KOXC 280755Z 35015G19KT 10SM OVC011 04/02 A2997 RMK AO1
006 KOKX 40.87 -72.87 00 20.86 KISP 40.80 -73.10 1235807760 2009-02-28 08:00:00 72 50 0 0 None 1000 10136 10135 4 None SCT                          BKN BKN None 29 36 80 None None None None None None None None None None None None METAR KISP 280756Z 00000KT 10SM SCT029 BKN036 BKN080 07/05 A2993 RMK AO2 SLP135 T00720050
006 KOKX 40.87 -72.87 00 73.15 KHPN 41.07 -73.70 1235807760 2009-02-28 08:00:00 61 22 300 13 None 1000 10143 10144 4 None BKN                          None None None 70 None None None None None None None None None None None None None None METAR KHPN 280756Z 30013KT 10SM BKN070 06/02 A2995 RMK AO2 SLP144 T00610022
006 KOKX 40.87 -72.87 00 5.56 KHWV 40.82 -72.87 1235807760 2009-02-28 08:00:00 78 50 250 4 None 600 10140 10139 6 HZ FEW                          OVC None None 30 80 None None None None None None None None None None None None None METAR KHWV 280756Z AUTO 25004KT 6SM HZ FEW030 OVC080 08/05 A2994 RMK AO2 SLP139 T00780050
006 KOKX 40.87 -72.87 00 85.66 KGON 41.33 -72.05 1235807760 2009-02-28 08:00:00 78 67 260 7 None 800 10130 10128 6 None OVC                          None None None 4 None None None None None None None None 5 None None None None None METAR KGON 280756Z AUTO 26007KT 8SM OVC004 08/07 A2991 RMK AO2 RAB26E53 SLP128 P0000 T00780067
006 KOKX 40.87 -72.87 01 75.51 KDXR 41.37 -73.48 1235808780 2009-02-28 08:13:00 40 30 330 6 None 1000 10157 None 6 None OVC                          None None None 15 None None None None None None None None None None None None None None METAR KDXR 280813Z AUTO 33006KT 10SM OVC015 04/03 A2999 RMK AO2
006 KOKX 40.87 -72.87 01 64.63 KSNC 41.38 -72.50 1235808900 2009-02-28 08:15:00 70 None 260 5 None 500 10133 None 6 -DZ BKN                          BKN None None 4 90 None None None None None None None None None None None None None METAR KSNC 280815Z AUTO 26005KT 5SM -DZ BKN004 BKN090 07/ A2992 RMK A02 P-128
006 KOKX 40.87 -72.87 01 70.18 KOXC 41.47 -73.13 1235808900 2009-02-28 08:15:00 40 20 360 9 None 1000 10153 None 4 None BKN                          OVC None None 13 20 None None None None None None None None None None None None None METAR KOXC 280815Z 36009KT 10SM BKN013 OVC020 04/02 A2998 RMK AO1
006 KOKX 40.87 -72.87 01 44.48 KHVN 41.27 -72.87 1235809260 2009-02-28 08:21:00 60 50 300 8 None 500 10140 None 6 BR BKN                          BKN BKN None 11 31 55 None None None None None None None None None None None None METAR KHVN 280821Z AUTO 30008KT 5SM BR BKN011 BKN031 BKN055 06/05 A2994 RMK AO2 PRESRR
006 KOKX 40.87 -72.87 01 39.86 KBDR 41.17 -73.13 1235809620 2009-02-28 08:27:00 80 70 350 14 21 1000 10143 None 4 None SCT                          BKN None None 14 21 None None None None None None None None None None None None None METAR KBDR 280827Z 35014G21KT 10SM SCT014 BKN021 08/07 A2995 RMK AO2
006 KOKX 40.87 -72.87 01 64.63 KSNC 41.38 -72.50 1235810100 2009-02-28 08:35:00 60 None 340 11 14 400 10136 None 6 HZ BKN                          OVC None None 2 12 None None None None None None None None None None None None None METAR KSNC 280835Z AUTO 34011G14KT 4SM HZ BKN002 OVC012 06/ A2993 RMK A02 P-128
006 KOKX 40.87 -72.87 01 70.18 KOXC 41.47 -73.13 1235810100 2009-02-28 08:35:00 30 20 360 6 None 1000 10157 None 4 None FEW                          OVC None None 13 22 None None None None None None None None None None None None None METAR KOXC 280835Z 36006KT 10SM FEW013 OVC022 03/02 A2999 RMK AO1
006 KOKX 40.87 -72.87 01 39.86 KBDR 41.17 -73.13 1235810160 2009-02-28 08:36:00 70 60 340 13 21 1000 10146 None 4 None FEW                          BKN OVC None 14 21 28 None None None None None None None None None None None None METAR KBDR 280836Z 34013G21KT 10SM FEW014 BKN021 OVC028 07/06 A2996 RMK AO2 WSHFT 0816
006 KOKX 40.87 -72.87 01 44.48 KHVN 41.27 -72.87 1235810340 2009-02-28 08:39:00 70 40 320 9 None 1000 10146 None 6 None SCT                          OVC None None 11 20 None None None None None None None None None None None None None METAR KHVN 280839Z AUTO 32009KT 10SM SCT011 OVC020 07/04 A2996 RMK AO2
006 KOKX 40.87 -72.87 01 85.66 KGON 41.33 -72.05 1235810460 2009-02-28 08:41:00 80 70 270 6 None 800 10133 None 6 None FEW                          BKN OVC None 6 23 110 None None None None None None None None None None None None METAR KGON 280841Z AUTO 27006KT 8SM FEW006 BKN023 OVC110 08/07 A2992 RMK AO2
006 KOKX 40.87 -72.87 01 72.36 KMMK 41.52 -72.83 1235810940 2009-02-28 09:00:00 40 0 320 13 23 1000 10153 None 6 None FEW                          SCT SCT None 23 42 50 None None None None None None None None None None None None METAR KMMK 280849Z AUTO 32013G23KT 10SM FEW023 SCT042 SCT050 04/00 A2998 RMK AO2
006 KOKX 40.87 -72.87 01 93.10 KNYC 40.78 -73.97 1235811060 2009-02-28 09:00:00 44 0 290 9 17 1000 10170 10162 38 None FEW                          None None None 21 None None None 32 None None None None None None None None None None METAR KNYC 280851Z AUTO 29009G17KT 10SM FEW021 04/00 A3003 RMK AO2 SLP162 T00440000 51032 TSNO
006 KOKX 40.87 -72.87 01 85.57 KLGA 40.78 -73.88 1235811060 2009-02-28 09:00:00 50 0 310 19 25 1000 10160 10158 4 None FEW                          None None None 90 None None None 29 None None None None None None None None None None METAR KLGA 280851Z 31019G25KT 10SM FEW090 05/00 A3000 RMK AO2 PK WND 32026/0805 SLP158 T00500000 52029
006 KOKX 40.87 -72.87 01 80.38 KJFK 40.63 -73.77 1235811060 2009-02-28 09:00:00 61 11 320 18 None 1000 10160 10157 12 None FEW                          SCT BKN None 35 55 90 None 19 None None None None 5 5 None None None None METAR KJFK 280851Z 32018KT 10SM FEW035 SCT055 BKN090 06/01 A3000 RMK AO2 PK WND 32026/0809 RAE0758 SLP157 FROPA P0000 60000 T00610011 53019 $
006 KOKX 40.87 -72.87 01 99.22 KTEB 40.87 -74.05 1235811060 2009-02-28 09:00:00 33 -17 350 13 20 1000 10163 10162 4 None CLR                          None None None None None None None 35 None None None None None 5 None None None None METAR KTEB 280851Z 35013G20KT 10SM CLR 03/M02 A3001 RMK AO2 SLP162 60000 T00331017 51035
006 KOKX 40.87 -72.87 01 39.86 KBDR 41.17 -73.13 1235811120 2009-02-28 09:00:00 61 44 350 12 17 1000 10146 10146 4 None BKN                          BKN None None 21 90 None None 20 None None None None None None None None None None METAR KBDR 280852Z 35012G17KT 10SM BKN021 BKN090 06/04 A2996 RMK AO2 WSHFT 0816 SLP146 T00610044 53020
006 KOKX 40.87 -72.87 01 75.51 KDXR 41.37 -73.48 1235811180 2009-02-28 09:00:00 39 22 360 10 None 1000 10160 10159 6 None BKN                          OVC None None 15 20 None None 33 None None None None None None None None None None METAR KDXR 280853Z AUTO 36010KT 310V020 10SM BKN015 OVC020 04/02 A3000 RMK AO2 SLP159 T00390022 51033
006 KOKX 40.87 -72.87 01 44.48 KHVN 41.27 -72.87 1235811180 2009-02-28 09:00:00 67 28 330 9 None 1000 10150 10147 6 None FEW                          BKN OVC None 13 25 55 None 23 None None None None None None None None None None METAR KHVN 280853Z AUTO 33009KT 10SM FEW013 BKN025 OVC055 07/03 A2997 RMK AO2 SLP147 T00670028 53023
006 KOKX 40.87 -72.87 01 97.38 KHFD 41.73 -72.65 1235811180 2009-02-28 09:00:00 44 6 360 8 None 1000 10157 10157 4 None FEW                          OVC None None 23 33 None None 42 None None None None None 5 None None None None METAR KHFD 280853Z 36008KT 10SM FEW023 OVC033 04/01 A2999 RMK AO2 SLP157 60000 T00440006 53042
006 KOKX 40.87 -72.87 01 72.36 KMMK 41.52 -72.83 1235811180 2009-02-28 09:00:00 44 0 320 10 23 1000 10157 10154 6 None FEW                          SCT None None 23 50 None None 29 None None None None None 5 None None None None METAR KMMK 280853Z AUTO 32010G23KT 10SM FEW023 SCT050 04/00 A2999 RMK AO2 SLP154 60000 T00440000 51029
006 KOKX 40.87 -72.87 01 48.84 KFRG 40.73 -73.42 1235811180 2009-02-28 09:00:00 72 39 320 9 None 1000 10150 10149 6 None FEW                          BKN None None 46 90 None None 15 None None None None None None None None None None METAR KFRG 280853Z AUTO 32009KT 10SM FEW046 BKN090 07/04 A2997 RMK AO2 SLP149 T00720039 53015
006 KOKX 40.87 -72.87 01 21.14 KFOK 40.85 -72.62 1235811180 2009-02-28 09:00:00 72 50 260 5 None 600 10143 10141 38 BR BKN                          BKN BKN None 32 39 75 None 0 None None None None None 5 None None None None METAR KFOK 280853Z AUTO 26005KT 6SM BR BKN032 BKN039 BKN075 07/05 A2995 RMK AO2 SLP141 60000 T00720050 55000 TSNO
006 KOKX 40.87 -72.87 01 82.80 KMTP 41.07 -71.92 1235811240 2009-02-28 09:00:00 72 56 230 4 None None 10136 10134 166 None None                          None None None None None None None 1 None None None None None 80 None None None None METAR KMTP 280854Z AUTO 23004KT 07/06 A2993 RMK AO2 SLP134 60008 T00720056 51001 PWINO TSNO
006 KOKX 40.87 -72.87 01 70.18 KOXC 41.47 -73.13 1235811300 2009-02-28 09:00:00 30 10 350 9 15 1000 10160 None 4 None BKN                          OVC None None 13 22 None None 34 None None None None None None None None None None METAR KOXC 280855Z 35009G15KT 10SM BKN013 OVC022 03/01 A3000 RMK AO1 52034
006 KOKX 40.87 -72.87 01 64.63 KSNC 41.38 -72.50 1235811300 2009-02-28 09:00:00 40 40 330 13 17 1000 10143 None 6 None FEW                          OVC None None 2 12 None None None None None None None None None None None None None METAR KSNC 280855Z AUTO 33013G17KT 10SM FEW002 OVC012 04/04 A2995 RMK A02 P-128
006 KOKX 40.87 -72.87 01 5.56 KHWV 40.82 -72.87 1235811360 2009-02-28 09:00:00 78 50 290 7 None 700 10143 10141 6 None OVC                          None None None 42 None None None 3 None None None None None None None None None None METAR KHWV 280856Z AUTO 29007KT 7SM OVC042 08/05 A2995 RMK AO2 SLP141 T00780050 53003
006 KOKX 40.87 -72.87 01 85.66 KGON 41.33 -72.05 1235811360 2009-02-28 09:00:00 78 72 270 6 None 800 10133 10133 6 None FEW                          BKN OVC None 6 14 23 None 3 None None None None None 5 None None None None METAR KGON 280856Z AUTO 27006KT 8SM FEW006 BKN014 OVC023 08/07 A2992 RMK AO2 SLP133 60000 T00780072 53003
006 KOKX 40.87 -72.87 01 20.86 KISP 40.80 -73.10 1235811360 2009-02-28 09:00:00 83 56 310 11 None 1000 10140 10138 4 None FEW                          BKN None None 43 90 None None 10 None None None None None None None None None None METAR KISP 280856Z 31011KT 10SM FEW043 BKN090 08/06 A2994 RMK AO2 SLP138 T00830056 51010
006 KOKX 40.87 -72.87 01 73.15 KHPN 41.07 -73.70 1235811360 2009-02-28 09:00:00 44 6 310 11 None 1000 10146 10150 4 None SCT                          None None None 50 None None None 22 None None None None None None None None None None METAR KHPN 280856Z 31011KT 10SM SCT050 04/01 A2996 RMK AO2 SLP150 T00440006 51022
